NLLOC "./loc/vinti.19950422.151958.grid0" "LOCATED" "Location completed."
SIGNATURE "Anthony Lomax - ALomax Scientific   NLLoc:v6.00.0 18Mar2011 16h17m13"
COMMENT "1995 Vintimiglia Sequence (NonLinLoc Sample Location)"
GRID  101 101 21  -50 -50 0  1 1 1 PROB_DENSITY
SEARCH OCTREE nInitial 400 nEvaluated 10000 smallestNodeSide 0.156250/0.156250/0.082031 oct_tree_integral 7.338447e+00 scatter_volume 7.244319e+00
HYPOCENTER  x 4.92188 y 4.60938 z 9.88477  OT 56.6642  ix -1 iy -1 iz -1
GEOGRAPHIC  OT 1995 04 22  15 19   56.6642  Lat 43.7915 Long 7.56116 Depth 9.88477
QUALITY  Pmax 3.17556e+29 MFmin 20.0632 MFmax 20.2466 RMS 0.0859221 Nphs 12 Gap 188.519 Dist 10.4172 Mamp  -9.9 0 Mdur  -9.9 0
VPVSRATIO  VpVsRatio -1  Npair 1  Diff 0
STATISTICS  ExpectX 4.97885 Y 4.99359 Z 10.0297  CovXX 0.196436 XY -0.143863 XZ 0.234901 YY 1.76773 YZ 0.828836 ZZ 2.4592 EllAz1  260.348 Dip1  9.05431 Len1  0.687765 Az2  344.665 Dip2  -31.861 Len2  2.11987 Len3  3.263073e+00
STAT_GEOG  ExpectLat 43.7949 Long 7.56187 Depth 10.0297
TRANSFORM  LAMBERT RefEllipsoid Clarke-1880  LatOrig 43.750000  LongOrig 7.500000  FirstStdParal 43.199300  SecondStdParal 44.996100  RotCW 0.000000
QML_OriginQuality  assocPhCt 0  usedPhCt 12  assocStaCt 0  usedStaCt 0  depthPhCt 0  stdErr 0.0859221  azGap 188.519  secAzGap 0  gtLevel   minDist 0 maxDist 0 medDist 0
QML_OriginUncertainty  horUnc -1  minHorUnc 0  maxHorUnc 0  azMaxHorUnc 90
FOCALMECH  Hyp  43.7915 7.56116 9.88477 Mech  0 0 0 mf  0 nObs 0
PHASE ID Ins Cmp On Pha  FM Date     HrMn   Sec     Err  ErrMag    Coda      Amp       Per       PriorWt  >   TTpred    Res       Weight    StaLoc(X  Y         Z)        SDist    SAzim  RAz  RDip RQual    Tcorr       TTerr
RONE         ?    ?    ? P      ? 19950422 1519   59.2800 GAU  1.00e-01 -1.00e+00 -1.00e+00 -1.00e+00    1.0000 >    2.6791   -0.0633    1.0818    7.8887   14.5952   -0.3000   10.4172  16.55  16.5 128.1  9     0.0000   -1.0000
RONE         ?    ?    ? S      ? 19950422 1520    1.1200 GAU  1.00e-01 -1.00e+00 -1.00e+00 -1.00e+00    1.0000 >    4.5009   -0.0451    1.1148    7.8887   14.5952   -0.3000   10.4172  16.55  16.5 128.1  9     0.0000   -1.0000
SBF          ?    ?    i p      d 19950422 1519   59.8800 GAU  1.00e-01 -1.00e+00 -1.00e+00 -1.00e+00    1.0000 >    3.1320    0.0837    1.0229   -5.2384   12.6113   -0.8470   12.9330 308.22 308.2 122.0  9     0.0000   -1.0000
NEGI         ?    ?    ? S      ? 19950422 1520    2.1100 GAU  1.00e-01 -1.00e+00 -1.00e+00 -1.00e+00    1.0000 >    5.2210    0.1847    0.6526   16.3893   10.8705   -0.6400   13.0654  61.37  61.4 121.4  9     0.0400   -1.0000
NEGI         ?    ?    ? P      ? 19950422 1519   59.8200 GAU  1.00e-01 -1.00e+00 -1.00e+00 -1.00e+00    1.0000 >    3.1078    0.0080    1.1465   16.3893   10.8705   -0.6400   13.0654  61.37  61.4 121.4  9     0.0400   -1.0000
REVF         ?    ?    P G      ? 19950422 1520    0.1700 GAU  1.00e-01 -1.00e+00 -1.00e+00 -1.00e+00    1.0000 >    3.6334   -0.1276    0.8933  -10.6730   -1.1024   -0.7000   16.6079 249.88 249.9 115.1  9     0.0000   -1.0000
CEPP         ?    ?    ? S      ? 19950422 1520    3.8200 GAU  1.00e-01 -1.00e+00 -1.00e+00 -1.00e+00    1.0000 >    7.1854   -0.0296    1.1020   19.7971   18.5085   -1.0800   20.3582  46.94  46.9 110.5  9     0.0000   -1.0000
CEPP         ?    ?    ? P      ? 19950422 1520    0.9100 GAU  1.00e-01 -1.00e+00 -1.00e+00 -1.00e+00    1.0000 >    4.2770   -0.0313    1.1326   19.7971   18.5085   -1.0800   20.3582  46.94  46.9 110.5  9     0.0000   -1.0000
AURF         ?    ?    P G      ? 19950422 1520    1.1900 GAU  1.00e-01 -1.00e+00 -1.00e+00 -1.00e+00    1.0000 >    4.4607    0.0650    1.0703  -13.8607   15.2716   -1.0400   21.5979 299.58 299.6 109.2  9     0.0000   -1.0000
AUTN         ?    ?    ? p      ? 19950422 1520    1.6800 GAU  1.00e-01 -1.00e+00 -1.00e+00 -1.00e+00    1.0000 >    5.2052   -0.1895    0.6508   -5.8149   27.2765   -2.0690   25.0815 334.65 334.7 106.5  9     0.0000   -1.0000
MVIF         ?    ?    i p      d 19950422 1520    3.3700 GAU  1.00e-01 -1.00e+00 -1.00e+00 -1.00e+00    1.0000 >    6.6458    0.0599    1.0618  -27.9180   16.3343   -1.4800   34.8702 289.65 289.6  98.6  9     0.0000   -1.0000
TOUF         ?    ?    i p      u 19950422 1520    3.4900 GAU  1.00e-01 -1.00e+00 -1.00e+00 -1.00e+00    1.0000 >    6.7714    0.0543    1.0705  -20.1791   29.3046   -1.8500   35.2123 314.53 314.5  98.6  9     0.0000   -1.0000
LRG          ?    ?    ? G      ? 19950422 1520   14.8000 GAU  1.00e-01 -1.00e+00 -1.00e+00 -1.00e+00    1.0000 >    0.0000    0.0000    0.0000 -100000000000000000000.0000 -100000000000000000000.0000 -100000000000000000000.0000    0.0000   0.00   0.0   0.0  0     0.0000   -1.0000
0665         ?    ?    i p      u 19950422 1519   58.7600 GAU  1.00e-01 -1.00e+00 -1.00e+00 -1.00e+00    1.0000 >    0.0000    0.0000    0.0000 -100000000000000000000.0000 -100000000000000000000.0000 -100000000000000000000.0000    0.0000   0.00   0.0   0.0  0     0.0000   -1.0000
0669         ?    ?    i p      u 19950422 1519   58.9800 GAU  1.00e-01 -1.00e+00 -1.00e+00 -1.00e+00    1.0000 >    0.0000    0.0000    0.0000 -100000000000000000000.0000 -100000000000000000000.0000 -100000000000000000000.0000    0.0000   0.00   0.0   0.0  0     0.0000   -1.0000
0667         ?    ?    e p      u 19950422 1519   59.7000 GAU  1.00e-01 -1.00e+00 -1.00e+00 -1.00e+00    1.0000 >    0.0000    0.0000    0.0000 -100000000000000000000.0000 -100000000000000000000.0000 -100000000000000000000.0000    0.0000   0.00   0.0   0.0  0     0.0000   -1.0000
.obs         ?    ?    i p      d 19950422 1519   60.2300 GAU  1.00e-01 -1.00e+00 -1.00e+00 -1.00e+00    1.0000 >    0.0000    0.0000    0.0000 -100000000000000000000.0000 -100000000000000000000.0000 -100000000000000000000.0000    0.0000   0.00   0.0   0.0  0     0.0000   -1.0000
CALN         ?    ?    i p      u 19950422 1519   66.5200 GAU  1.00e-01 -1.00e+00 -1.00e+00 -1.00e+00    1.0000 >    0.0000    0.0000    0.0000 -100000000000000000000.0000 -100000000000000000000.0000 -100000000000000000000.0000    0.0000   0.00   0.0   0.0  0     0.0000   -1.0000
FRF          ?    ?    ? G      ? 19950422 1520   10.3000 GAU  1.00e-01 -1.00e+00 -1.00e+00 -1.00e+00    1.0000 >    0.0000    0.0000    0.0000 -100000000000000000000.0000 -100000000000000000000.0000 -100000000000000000000.0000    0.0000   0.00   0.0   0.0  0     0.0000   -1.0000
LMR          ?    ?    ? G      ? 19950422 1520   13.4000 GAU  1.00e-01 -1.00e+00 -1.00e+00 -1.00e+00    1.0000 >    0.0000    0.0000    0.0000 -100000000000000000000.0000 -100000000000000000000.0000 -100000000000000000000.0000    0.0000   0.00   0.0   0.0  0     0.0000   -1.0000
0666         ?    ?    i p      u 19950422 1519   58.7200 GAU  1.00e-01 -1.00e+00 -1.00e+00 -1.00e+00    1.0000 >    0.0000    0.0000    0.0000 -100000000000000000000.0000 -100000000000000000000.0000 -100000000000000000000.0000    0.0000   0.00   0.0   0.0  0     0.0000   -1.0000
END_PHASE
SCATTER Nsamples 5000
   5.0247    6.7645   11.7227  7.24e+01
   5.0360    6.7664   11.8101  7.24e+01
   5.2123    6.6246   11.7889  7.24e+01
   5.1095    6.6471   11.7241  7.24e+01
   5.3425    4.3537   10.5317  7.24e+01
   5.4115    4.2494   10.5053  7.24e+01
   5.4865    4.0862   10.6108  7.24e+01
   5.2700    3.5115   10.0393  7.24e+01
   5.1027    3.4807   10.1599  7.24e+01
   5.0101    3.6511   10.0330  7.24e+01
   5.1884    8.7017   11.9264  7.03e+01
   5.0208    8.7285   11.9444  7.03e+01
   5.6165    8.7057   12.1310  7.03e+01
   5.4300    8.4371   12.1117  7.03e+01
   5.2691    5.1777    9.5503  7.24e+01
   5.2369    5.0641    9.5405  7.24e+01
   5.1497    5.1412    9.6213  7.24e+01
   5.2019    5.1595    9.5930  7.24e+01
   4.9677    5.0589   11.3595  7.24e+01
   4.7376    5.1749   11.4221  7.24e+01
   4.9675    5.0059   11.4595  7.24e+01
   4.8327    5.2789   11.4092  7.24e+01
   3.9027    4.4185    6.8987  7.03e+01
   4.1060    4.5582    7.0044  7.03e+01
   3.9661    4.8144    6.9529  7.03e+01
   4.6918    3.6004    8.4637  7.24e+01
   4.7536    3.5320    8.4586  7.24e+01
   4.7331    3.5895    8.4545  7.24e+01
   4.6035    4.5415    8.0841  7.24e+01
   4.6393    4.5929    8.0622  7.24e+01
   4.6528    4.3839    8.0912  7.24e+01
   4.0524    5.1293    7.7217  7.03e+01
   4.3402    5.0614    7.7341  7.03e+01
   4.0013    5.2035    7.6659  7.03e+01
   4.6926    3.4717    8.7102  7.24e+01
   4.9729    3.5583    8.7436  7.24e+01
   4.9148    3.5429    8.7744  7.24e+01
   4.6231    5.4191   10.7098  7.24e+01
   4.5789    5.4414   10.7918  7.24e+01
   4.4167    5.4723   10.8114  7.24e+01
   4.6778    5.5694   10.7855  7.24e+01
   6.2108    3.2844   10.9358  7.03e+01
   5.8840    3.1628   10.9652  7.03e+01
   6.1587    3.6245   10.8831  7.03e+01
   6.1104    3.5542   11.0279  7.03e+01
   4.4339    5.7809    9.5189  7.24e+01
   4.4486    5.8361    9.5805  7.24e+01
   4.5235    5.8818    9.5411  7.24e+01
   4.7183    3.9739    7.5807  7.24e+01
   4.8025    3.9757    7.6969  7.24e+01
   4.9596    3.7839    7.6789  7.24e+01
   5.5249    3.9126   10.4555  7.24e+01
   5.3293    3.8778   10.3739  7.24e+01
   5.4078    4.0047   10.3787  7.24e+01
   5.5646    3.8815   10.4117  7.24e+01
   5.1268    5.9921   11.6814  7.24e+01
   5.2176    6.0317   11.7105  7.24e+01
   5.2500    6.0118   11.6864  7.24e+01
   5.4649    2.5962    6.2251  7.03e+01
   5.4439    2.8500    6.2224  7.03e+01
   5.4705    2.7762    6.2006  7.03e+01
   5.6149    2.5067    6.0415  7.03e+01
   5.0102    3.7179   12.6347  7.03e+01
   5.5785    3.2280   12.6448  7.03e+01
   5.0085    3.7355   12.6794  7.03e+01
   5.5940    3.1690   12.5051  7.03e+01
   4.5102    3.9426    5.8270  7.03e+01
   4.5876    3.9354    5.6216  7.03e+01
   4.9384    4.1618    5.5977  7.03e+01
   4.4880    3.8231    5.8769  7.03e+01
   4.5096    6.2862   10.2234  7.24e+01
   4.6483    6.4158   10.1795  7.24e+01
   4.6084    6.5489   10.3222  7.24e+01
   4.7392    4.1417    7.7235  7.24e+01
   4.9892    4.1815    7.8342  7.24e+01
   4.8844    4.1209    7.8321  7.24e+01
   4.5828    5.0342    8.7711  7.24e+01
   4.5844    5.3064    8.8156  7.24e+01
   4.3870    5.0709    8.7682  7.24e+01
   4.6194    5.0807    8.7214  7.24e+01
   4.9348    6.7276   11.5984  7.24e+01
   4.8223    6.7001   11.6001  7.24e+01
   4.9427    6.8393   11.5591  7.24e+01
   5.3357    4.5358   10.4380  7.23e+01
   5.5635    4.6518   10.4860  7.23e+01
   5.3942    4.4334   10.4322  7.23e+01
   4.7672    7.0902   10.3737  7.23e+01
   4.8349    6.8954   10.4727  7.23e+01
   4.8108    7.0251   10.4110  7.23e+01
   5.0893    6.5796   10.7132  7.23e+01
   5.1808    6.7222   10.7747  7.23e+01
   5.1315    6.6468   10.6747  7.23e+01
   5.0895    6.7477   10.6913  7.23e+01
   5.1554    4.6844   11.5340  7.23e+01
   5.0757    4.5326   11.5421  7.23e+01
   5.1817    4.4227   11.5360  7.23e+01
   5.6880    4.1908   10.6892  7.03e+01
   6.0169    3.9116   10.7310  7.03e+01
   5.6251    3.9918   10.8184  7.03e+01
   4.7309    3.7399    4.5207  6.82e+01
   4.0800    2.9353    4.1327  6.82e+01
   4.4035    3.5383    4.3978  6.82e+01
   4.7489    3.6723    8.1575  7.23e+01
   4.8968    3.6007    8.0525  7.23e+01
   4.9902    3.4505    8.0730  7.23e+01
   5.5395    3.4660    9.4581  7.23e+01
   5.3170    3.4607    9.5106  7.23e+01
   5.3525    3.5181    9.4266  7.23e+01
   5.5307    4.4108   10.6914  7.23e+01
   5.4968    4.5222   10.7900  7.23e+01
   5.3172    4.4137   10.7690  7.23e+01
   5.4359    4.3906   10.8178  7.23e+01
   5.1985    1.9463    6.2234  6.82e+01
   5.1236    2.3547    6.4726  6.82e+01
   5.5765    1.4892    6.1736  6.82e+01
   4.8144    4.3626   10.8760  7.23e+01
   4.9764    4.2382   10.9458  7.23e+01
   4.9321    4.2719   10.8303  7.23e+01
   4.7419    4.2280   10.9435  7.23e+01
   5.3066    4.6359    8.8475  7.23e+01
   5.0934    4.4978    8.7253  7.23e+01
   5.2930    4.5038    8.7212  7.23e+01
   5.2628    4.4469    8.7368  7.23e+01
   4.5018    6.2553   10.6240  7.23e+01
   4.5192    6.3804   10.5375  7.23e+01
   4.6153    6.4521   10.6628  7.23e+01
   5.1302    4.1517   11.3562  7.23e+01
   5.0170    4.3498   11.3892  7.23e+01
   5.1259    4.2610   11.4301  7.23e+01
   5.0733    4.1288   11.4286  7.23e+01
   5.5295    3.8380    9.2295  7.23e+01
   5.5713    4.0464    9.1900  7.23e+01
   5.3598    3.9906    9.3163  7.23e+01
   5.6043    3.9581    9.2623  7.23e+01
   4.8038    3.6409    9.0295  7.23e+01
   4.7867    3.5794    9.1759  7.23e+01
   4.9115    3.5541    9.0430  7.23e+01
   4.8724    5.1751    8.9217  7.23e+01
   4.7716    5.1704    8.9234  7.23e+01
   4.7619    5.2861    8.9647  7.23e+01
   4.5926    4.0818    8.0067  7.23e+01
   4.4817    4.2390    7.9038  7.23e+01
   4.6545    4.2681    7.9923  7.23e+01
   5.3883    4.2391   10.9859  7.23e+01
   5.5368    4.3665   10.9863  7.23e+01
   5.5293    4.1703   10.9854  7.23e+01
   5.3812    4.3737   10.9407  7.23e+01
   5.5206    3.5031    9.1795  7.23e+01
   5.5856    3.5085    9.0426  7.23e+01
   5.4934    3.5782    9.1139  7.23e+01
   3.9332    5.7118    8.6392  7.02e+01
   4.3699    5.6875    8.7784  7.02e+01
   4.3000    5.9972    8.5797  7.02e+01
   4.3016    6.0762    8.7733  7.02e+01
   5.7806    4.3689   11.2656  7.02e+01
   5.8784    4.3373   11.3128  7.02e+01
   5.9346    4.3315   11.3027  7.02e+01
   5.6588    4.3436   11.4505  7.02e+01
   5.4577    4.0804    9.6304  7.23e+01
   5.5222    4.2825    9.5309  7.23e+01
   5.5321    4.3205    9.5170  7.23e+01
   4.4547    6.7934   10.3623  7.23e+01
   4.5328    6.7287   10.3850  7.23e+01
   4.4921    6.8745   10.4231  7.23e+01
   4.5568    6.7429   10.4716  7.23e+01
   5.4290    5.2472    9.1779  7.02e+01
   5.0968    5.5182    9.0526  7.02e+01
   5.2393    5.4262    8.9026  7.02e+01
   4.8908    3.8630   10.4759  7.23e+01
   4.7075    3.9388   10.4359  7.23e+01
   4.9441    4.0298   10.4521  7.23e+01
   4.7524    4.0308   10.4503  7.23e+01
   5.2705    5.3907   11.7324  7.23e+01
   5.0672    5.4512   11.6686  7.23e+01
   5.0360    5.3849   11.7177  7.23e+01
   5.9314    3.4651   11.6089  7.02e+01
   5.8923    3.6876   11.6734  7.02e+01
   6.1140    3.5506   11.6845  7.02e+01
   5.3895    4.5168   10.0554  7.23e+01
   5.5114    4.6832   10.1301  7.23e+01
   5.5736    4.5024   10.1250  7.23e+01
   5.2775    4.3064    8.2284  7.23e+01
   5.3105    4.1179    8.3663  7.23e+01
   5.1834    4.3220    8.2225  7.23e+01
   4.3771    4.7952   10.7424  7.23e+01
   4.4565    4.9004   10.7850  7.23e+01
   4.5816    4.7736   10.6694  7.23e+01
   4.5885    4.9307   10.7958  7.23e+01
   5.4028    3.5967    9.8705  7.23e+01
   5.5191    3.5555    9.8762  7.23e+01
   5.5456    3.4426    9.8482  7.23e+01
   4.5847    6.1186   10.7771  7.23e+01
   4.3976    6.0689   10.7762  7.23e+01
   4.4001    5.9414   10.7480  7.23e+01
   5.5566    3.9871   10.7939  7.23e+01
   5.3248    3.8310   10.7189  7.23e+01
   5.5081    3.8318   10.7067  7.23e+01
   5.5491    4.0161   10.8272  7.23e+01
   4.5175    4.9696    8.2434  7.22e+01
   4.4403    4.7376    8.3459  7.22e+01
   4.5598    4.7094    8.3217  7.22e+01
   5.1500    3.4989   10.4882  7.22e+01
   5.0820    3.4605   10.4172  7.22e+01
   5.0733    3.6721   10.4711  7.22e+01
   5.1610    4.7513   11.7603  7.22e+01
   5.2267    4.6906   11.7902  7.22e+01
   5.2201    4.9159   11.6628  7.22e+01
   5.4550    4.5094   11.1482  7.22e+01
   5.5566    4.4180   11.0907  7.22e+01
   5.5789    4.5149   11.1179  7.22e+01
   4.7051    6.1759   11.5882  7.22e+01
   4.7448    6.1760   11.5945  7.22e+01
   4.8783    6.2026   11.5050  7.22e+01
   4.7740    6.0445   11.6051  7.22e+01
   4.3858    6.1203    9.8411  7.22e+01
   4.5164    6.1089    9.8052  7.22e+01
   4.4182    6.1604    9.7318  7.22e+01
   4.6816    5.2968   10.8455  7.22e+01
   4.4952    5.3072   10.9418  7.22e+01
   4.5991    5.0395   10.9159  7.22e+01
   4.9488    3.6128    7.7200  7.22e+01
   4.7096    3.5410    7.7482  7.22e+01
   4.6898    3.6320    7.8312  7.22e+01
   5.7751    3.5337   12.3685  7.01e+01
   6.1778    3.1491   12.2442  7.01e+01
   5.8612    3.1439   12.4377  7.01e+01
   4.8839    3.8179    7.5208  7.22e+01
   4.9074    3.9539    7.4484  7.22e+01
   4.9750    3.9816    7.4548  7.22e+01
   5.2179    3.0470   11.6678  7.01e+01
   5.3857    2.8924   11.5848  7.01e+01
   5.2990    2.5054   11.6091  7.01e+01
   4.3932    4.6624    7.9569  7.22e+01
   4.6248    4.4163    7.9139  7.22e+01
   4.6815    4.4770    8.0047  7.22e+01
   4.5883    4.4657    7.8786  7.22e+01
   5.5761    1.3404    5.8265  6.81e+01
   6.2412    1.6634    5.5101  6.81e+01
   5.9937    2.1030    5.2734  6.81e+01
   5.1245    7.3678   11.3295  7.22e+01
   5.1013    7.2875   11.4315  7.22e+01
   5.2719    7.4172   11.3298  7.22e+01
   5.4921    4.7860   10.8704  7.22e+01
   5.5647    4.7591   10.8496  7.22e+01
   5.3882    4.9442   10.9774  7.22e+01
   4.5374    5.9198    9.3963  7.22e+01
   4.4426    5.8743    9.4199  7.22e+01
   4.6607    5.7224    9.4009  7.22e+01
   4.5816    5.6792    9.4181  7.22e+01
   4.8614    7.4096   11.5521  7.22e+01
   4.7172    7.3659   11.6369  7.22e+01
   4.7155    7.3316   11.5188  7.22e+01
   5.2082    7.1684   10.9703  7.22e+01
   5.2542    6.8868   10.9506  7.22e+01
   5.1150    6.9711   10.8819  7.22e+01
   5.4959    4.7691   10.6603  7.22e+01
   5.3480    4.9533   10.6045  7.22e+01
   5.4196    4.9756   10.5345  7.22e+01
   5.3763    6.4459   12.8180  7.01e+01
   5.0333    6.5084   12.8555  7.01e+01
   5.3940    6.7395   12.9317  7.01e+01
   3.9135    4.0931    7.5257  7.01e+01
   4.0287    4.3311    7.4785  7.01e+01
   4.0034    3.9882    7.3745  7.01e+01
   5.1680    5.5055    9.8069  7.22e+01
   5.1907    5.5724    9.7098  7.22e+01
   5.0966    5.3572    9.7044  7.22e+01
   4.7632    4.7805    8.4853  7.22e+01
   4.9387    4.7748    8.3939  7.22e+01
   4.7217    4.8355    8.3935  7.22e+01
   5.0057    6.7849   11.9475  7.22e+01
   5.2287    6.8069   11.9096  7.22e+01
   5.1502    6.5633   11.8156  7.22e+01
   5.8469    3.3106   12.6470  7.01e+01
   6.0374    3.2631   12.7783  7.01e+01
   6.1835    3.1701   12.7175  7.01e+01
   4.6336    6.7730   10.7137  7.22e+01
   4.4533    6.6389   10.7938  7.22e+01
   4.4985    6.7272   10.7057  7.22e+01
   4.5250    3.4284    5.5578  7.01e+01
   4.4117    3.2454    5.3441  7.01e+01
   4.8101    3.5095    5.2862  7.01e+01
   4.9975    3.6425    9.3641  7.22e+01
   4.8633    3.4426    9.3920  7.22e+01
   4.9189    3.4839    9.4123  7.22e+01
   6.9614    8.2295   13.8930  6.59e+01
   6.5674    9.5408   14.3480  6.59e+01
   5.7363    9.7894   13.8052  6.59e+01
   4.6349    4.3504    7.8637  7.22e+01
   4.3952    4.1963    7.7207  7.22e+01
   4.5525    4.1305    7.8064  7.22e+01
   4.8805    7.3871   10.5757  7.22e+01
   4.8907    7.3181   10.5898  7.22e+01
   4.8696    7.4652   10.5421  7.22e+01
   5.0937    3.6155    7.5724  7.22e+01
   5.1011    3.4707    7.5923  7.22e+01
   5.0156    3.5769    7.6173  7.22e+01
   5.1568    6.5038   11.9027  7.22e+01
   5.1997    6.3656   11.8950  7.22e+01
   5.2425    6.3420   11.9534  7.22e+01
   5.2246    3.9299   11.2346  7.22e+01
   5.2458    3.9824   11.2208  7.22e+01
   5.2142    4.0483   11.2200  7.22e+01
   4.7482    4.3455    7.6644  7.22e+01
   4.7123    4.2015    7.5470  7.22e+01
   4.6975    4.1137    7.5499  7.22e+01
   6.1750    4.3339   12.1253  7.01e+01
   6.2135    3.8871   12.0307  7.01e+01
   6.0896    3.9450   11.9882  7.01e+01
   4.0777    5.3727   11.0192  7.01e+01
   4.1606    5.1171   11.0450  7.01e+01
   4.1774    5.0965   10.8344  7.01e+01
   5.5254    3.5382    8.7896  7.22e+01
   5.4598    3.5825    8.7802  7.22e+01
   5.4180    3.6704    8.7375  7.22e+01
   4.9518    5.5940    6.0323  6.80e+01
   4.6029    5.6897    6.3066  6.80e+01
   3.9656    5.3409    6.0115  6.80e+01
   4.5312    5.9383   12.2606  7.01e+01
   4.8975    6.0784   12.4180  7.01e+01
   4.7204    5.9729   12.2042  7.01e+01
   4.8305    7.5659   11.1451  7.22e+01
   4.9982    7.6802   11.0063  7.22e+01
   4.8503    7.5604   11.1432  7.22e+01
   5.3248    4.3346    9.5133  7.22e+01
