NLLOC "./loc/vinti.19950421.080259.grid0" "LOCATED" "Location completed."
SIGNATURE "Anthony Lomax - ALomax Scientific   NLLoc:v6.00.0 18Mar2011 16h17m12"
COMMENT "1995 Vintimiglia Sequence (NonLinLoc Sample Location)"
GRID  101 101 21  -50 -50 0  1 1 1 PROB_DENSITY
SEARCH OCTREE nInitial 400 nEvaluated 10008 smallestNodeSide 0.156250/0.156250/0.082031 oct_tree_integral 1.046112e+01 scatter_volume 1.046112e+01
HYPOCENTER  x 4.76562 y 6.01562 z 8.49023  OT 57.0903  ix -1 iy -1 iz -1
GEOGRAPHIC  OT 1995 04 21  08 02   57.0903  Lat 43.8041 Long 7.55923 Depth 8.49023
QUALITY  Pmax 2.5502e+28 MFmin 17.7259 MFmax 17.8636 RMS 0.0904332 Nphs 12 Gap 177.917 Dist 9.13028 Mamp  -9.9 0 Mdur  -9.9 0
VPVSRATIO  VpVsRatio 0.5  Npair 2  Diff 1
STATISTICS  ExpectX 4.90718 Y 5.93022 Z 8.54284  CovXX 0.424543 XY -0.210244 XZ 1.08658 YY 0.994715 YZ -0.538068 ZZ 9.86791 EllAz1  77.875 Dip1  -5.64842 Len1  0.975283 Az2  348.352 Dip2  4.80661 Len2  1.87117 Len3  5.949055e+00
STAT_GEOG  ExpectLat 43.8034 Long 7.56098 Depth 8.54284
TRANSFORM  LAMBERT RefEllipsoid Clarke-1880  LatOrig 43.750000  LongOrig 7.500000  FirstStdParal 43.199300  SecondStdParal 44.996100  RotCW 0.000000
QML_OriginQuality  assocPhCt 0  usedPhCt 12  assocStaCt 0  usedStaCt 0  depthPhCt 0  stdErr 0.0904332  azGap 177.917  secAzGap 0  gtLevel   minDist 0 maxDist 0 medDist 0
QML_OriginUncertainty  horUnc -1  minHorUnc 0  maxHorUnc 0  azMaxHorUnc 90
FOCALMECH  Hyp  43.8041 7.55923 8.49023 Mech  0 0 0 mf  0 nObs 0
PHASE ID Ins Cmp On Pha  FM Date     HrMn   Sec     Err  ErrMag    Coda      Amp       Per       PriorWt  >   TTpred    Res       Weight    StaLoc(X  Y         Z)        SDist    SAzim  RAz  RDip RQual    Tcorr       TTerr
RONE         ?    ?    ? P      U 19950421 0802   59.4400 GAU  1.00e-01 -1.00e+00 -1.00e+00 -1.00e+00    1.0000 >    2.3659   -0.0161    1.2811    7.8887   14.5952   -0.3000    9.1303  20.00  20.0 128.2  9     0.0000   -1.0000
SBF          ?    ?    ? P      ? 19950421 0803    0.2600 GAU  1.00e-01 -1.00e+00 -1.00e+00 -1.00e+00    1.0000 >    2.8730    0.2968    0.3387   -5.2384   12.6113   -0.8470   11.9826 303.40 303.4 121.2  9     0.0000   -1.0000
NEGI         ?    ?    ? P      U 19950421 0803    0.0200 GAU  1.00e-01 -1.00e+00 -1.00e+00 -1.00e+00    1.0000 >    2.9200   -0.0302    1.2617   16.3893   10.8705   -0.6400   12.5968  67.33  67.3 119.6  9     0.0400   -1.0000
REVF         ?    ?    ? P      ? 19950421 0803    0.6700 GAU  1.00e-01 -1.00e+00 -1.00e+00 -1.00e+00    1.0000 >    3.5937   -0.0140    1.2832  -10.6730   -1.1024   -0.7000   17.0005 245.25 245.2 113.1  9     0.0000   -1.0000
CEPP         ?    ?    ? P      U 19950421 0803    1.1400 GAU  1.00e-01 -1.00e+00 -1.00e+00 -1.00e+00    1.0000 >    4.0639   -0.0141    1.2831   19.7971   18.5085   -1.0800   19.5452  50.27  50.3 110.7  9     0.0000   -1.0000
AURF         ?    ?    ? P      ? 19950421 0803    1.3900 GAU  1.00e-01 -1.00e+00 -1.00e+00 -1.00e+00    1.0000 >    4.2532    0.0465    1.2573  -13.8607   15.2716   -1.0400   20.7994 296.42 296.4 109.6  9     0.0000   -1.0000
AUTN         ?    ?    ? P      ? 19950421 0803    2.0400 GAU  1.00e-01 -1.00e+00 -1.00e+00 -1.00e+00    1.0000 >    4.9189    0.0309    1.2798   -5.8149   27.2765   -2.0690   23.7481 333.54 333.5 108.0  9     0.0000   -1.0000
IMI          ?    ?    ? P      ? 19950421 0803    2.7700 GAU  1.00e-01 -1.00e+00 -1.00e+00 -1.00e+00    1.0000 >    5.5799    0.0999    1.1089   31.5793   17.9062   -0.8400   29.3319  66.09  66.1 104.3  9     0.0000   -1.0000
TOUF         ?    ?    ? P      ? 19950421 0803    3.5500 GAU  1.00e-01 -1.00e+00 -1.00e+00 -1.00e+00    1.0000 >    6.5503   -0.0905    1.0723  -20.1791   29.3046   -1.8500   34.1264 313.03 313.0 102.2  9     0.0000   -1.0000
TOUF         ?    ?    ? S      ? 19950421 0803    7.6500 GAU  5.00e-01 -1.00e+00 -1.00e+00 -1.00e+00    1.0000 >   11.0045   -0.4447    0.3332  -20.1791   29.3046   -1.8500   34.1264 313.03 313.0 102.2  9     0.0000   -1.0000
MVIF         ?    ?    ? P      ? 19950421 0803    3.5800 GAU  1.00e-01 -1.00e+00 -1.00e+00 -1.00e+00    1.0000 >    6.5043   -0.0145    1.2548  -27.9180   16.3343   -1.4800   34.2738 287.52 287.5 102.0  9     0.0000   -1.0000
MVIF         ?    ?    ? S      ? 19950421 0803    8.6800 GAU  5.00e-01 -1.00e+00 -1.00e+00 -1.00e+00    1.0000 >   10.9272    0.6625    0.2459  -27.9180   16.3343   -1.4800   34.2738 287.52 287.5 102.0  9     0.0000   -1.0000
END_PHASE
SCATTER Nsamples 4999
   5.7243    5.8482   12.2170  6.80e+01
   6.1490    5.6687   12.3059  6.80e+01
   6.0317    6.2380   12.3323  6.80e+01
   6.0983    5.6984   12.3261  6.80e+01
   4.7577    5.2108    0.1638  6.80e+01
   4.5084    5.6157    0.0777  6.80e+01
   4.4186    5.5278    0.1882  6.80e+01
   4.8792    5.6067    0.2632  6.80e+01
   5.0859    5.3576   10.6172  7.01e+01
   5.0679    5.5160   10.5463  7.01e+01
   5.2752    5.3521   10.5264  7.01e+01
   5.2951    5.3190   10.6102  7.01e+01
   6.1545    5.0211   10.6802  6.80e+01
   5.7722    5.1562   10.6812  6.80e+01
   5.7513    5.3252   10.5580  6.80e+01
   5.7749    5.2084   10.6657  6.80e+01
   4.9247    7.7058   12.3883  6.60e+01
   4.3479    8.1513   12.1209  6.60e+01
   4.4476    7.6399   11.9879  6.60e+01
   4.7657    7.8018   12.1622  6.60e+01
   5.4201    4.5012    7.4474  6.80e+01
   5.4430    4.7965    7.2747  6.80e+01
   5.1808    4.9666    7.3012  6.80e+01
   5.2063    4.4411    7.2632  6.80e+01
   5.2161    6.0457   10.5245  7.01e+01
   5.2356    6.2107   10.6419  7.01e+01
   5.0714    6.0133   10.5813  7.01e+01
   5.2462    5.9586   10.5386  7.01e+01
   3.7773    5.7430    3.2933  6.80e+01
   4.0514    5.7172    3.3272  6.80e+01
   4.0714    5.6434    3.5541  6.80e+01
   3.7963    6.2491    3.3159  6.80e+01
   4.8582    7.6097   10.4174  6.80e+01
   4.4043    7.9338   10.4418  6.80e+01
   4.5601    8.0758   10.4622  6.80e+01
   4.9220    7.7894   10.4217  6.80e+01
   4.8840    6.5001    7.0843  7.01e+01
   4.8932    6.2564    7.0594  7.01e+01
   4.9342    6.3460    7.0855  7.01e+01
   4.9201    6.3020    7.0921  7.01e+01
   4.5489    6.7287    8.9488  7.01e+01
   4.6433    6.7861    9.0067  7.01e+01
   4.5072    6.6869    9.0181  7.01e+01
   4.5966    6.8189    8.9903  7.01e+01
   4.7185    6.7458    8.4601  7.01e+01
   4.7599    6.6119    8.3997  7.01e+01
   4.9346    6.7514    8.4659  7.01e+01
   4.7813    6.6697    8.5114  7.01e+01
   4.4151    6.6319    7.1848  7.01e+01
   4.5899    6.6025    7.1291  7.01e+01
   4.6835    6.7641    7.1565  7.01e+01
   4.4325    6.6499    7.1650  7.01e+01
   4.4565    6.2645    6.0445  7.01e+01
   4.6558    6.5495    5.9609  7.01e+01
   4.4898    6.3056    6.0621  7.01e+01
   4.6693    6.3945    5.9460  7.01e+01
   4.7249    5.6299    6.4819  7.01e+01
   4.8580    5.7063    6.5365  7.01e+01
   4.8656    5.9131    6.4201  7.01e+01
   4.9032    5.8433    6.4318  7.01e+01
   4.1507    6.4012    2.3918  6.80e+01
   4.3539    6.3990    2.5286  6.80e+01
   4.0234    6.6922    2.6088  6.80e+01
   5.2990    6.0880    8.8654  7.01e+01
   5.0262    6.1541    8.9816  7.01e+01
   5.2323    6.2113    8.8775  7.01e+01
   5.1263    6.0452    8.9882  7.01e+01
   4.1045    7.0731    6.2189  6.80e+01
   3.8741    6.9895    6.0837  6.80e+01
   3.8194    7.3514    5.9954  6.80e+01
   4.0908    7.1339    5.9510  6.80e+01
   4.6165    5.6685    9.4586  7.01e+01
   4.4853    5.6589    9.4977  7.01e+01
   4.5502    5.6502    9.5140  7.01e+01
   4.4027    5.9110    9.5132  7.01e+01
   4.6058    7.3328    5.1014  6.80e+01
   4.5461    7.4856    4.9777  6.80e+01
   4.5042    7.4524    4.9765  6.80e+01
   4.7128    7.2394    5.1109  6.80e+01
   5.2820    5.3229    8.9436  7.01e+01
   5.1087    5.5581    8.9952  7.01e+01
   5.2095    5.4956    8.8706  7.01e+01
   5.0442    5.5120    8.9197  7.01e+01
   3.8838    6.5780    9.5506  6.80e+01
   3.8571    6.5641    9.5856  6.80e+01
   4.0693    6.3146    9.8359  6.80e+01
   3.8254    6.4794    9.7344  6.80e+01
   4.6253    5.6630    5.9166  7.01e+01
   4.6257    5.6764    6.0553  7.01e+01
   4.5621    5.8554    5.9994  7.01e+01
   4.7513    6.6467    9.7388  7.01e+01
   4.7645    6.6422    9.8372  7.01e+01
   4.7360    6.6603    9.7175  7.01e+01
   4.7312    6.8252    9.8047  7.01e+01
   7.2035    4.9242   16.1984  6.59e+01
   7.4687    3.8410   15.8811  6.59e+01
   7.3592    4.5729   15.9529  6.59e+01
   6.6490    3.8631   16.3084  6.59e+01
   4.7206    6.8779   11.5785  6.80e+01
   4.8150    7.2071   11.6277  6.80e+01
   4.6708    7.2349   11.7104  6.80e+01
   4.5709    6.1213    5.4206  7.00e+01
   4.3926    5.9804    5.4708  7.00e+01
   4.5461    6.1806    5.5347  7.00e+01
   4.5153    6.1870    5.5609  7.00e+01
   5.1321    5.8112    8.4741  7.00e+01
   5.0386    5.6257    8.5056  7.00e+01
   5.0247    5.8457    8.4428  7.00e+01
   5.0805    5.7048    8.4912  7.00e+01
   4.9767    5.3233   10.4048  7.00e+01
   4.7742    5.5230   10.4769  7.00e+01
   4.7592    5.3849   10.3782  7.00e+01
   4.9190    5.5767    7.0448  7.00e+01
   4.8453    5.4101    7.0343  7.00e+01
   4.7599    5.3490    6.9761  7.00e+01
   4.7732    5.3364    6.9074  7.00e+01
   3.9582    6.3816    1.9554  6.79e+01
   4.0632    6.4199    1.8743  6.79e+01
   4.0815    6.8340    1.6678  6.79e+01
   3.9338    6.2845    1.7551  6.79e+01
   4.3790    6.3012    9.7322  7.00e+01
   4.5047    6.4294    9.7124  7.00e+01
   4.4584    6.4701    9.8159  7.00e+01
   4.6621    6.4028    9.7424  7.00e+01
   4.1621    6.8591    1.0888  6.79e+01
   4.3251    6.6888    0.9988  6.79e+01
   3.9032    6.3259    1.1940  6.79e+01
   3.8146    6.5934    1.0721  6.79e+01
   5.1115    6.4661    9.7480  7.00e+01
   5.1893    6.5158    9.7752  7.00e+01
   5.2647    6.4852    9.6894  7.00e+01
   5.1932    6.3647    9.7149  7.00e+01
   4.5888    6.8473    6.7993  7.00e+01
   4.5730    6.7047    6.8534  7.00e+01
   4.5681    6.6083    6.7896  7.00e+01
   4.3912    6.8069    6.7870  7.00e+01
   4.8443    6.2261   10.6801  7.00e+01
   4.8131    6.2273   10.8179  7.00e+01
   4.8352    6.1991   10.7394  7.00e+01
   4.9175    6.0414   10.8142  7.00e+01
   4.5320    6.0121    9.9682  7.00e+01
   4.6815    5.9813    9.9084  7.00e+01
   4.6686    5.9471    9.9018  7.00e+01
   5.2865    6.2860   10.1078  7.00e+01
   5.0330    6.3868   10.1076  7.00e+01
   5.0704    6.3926   10.0420  7.00e+01
   5.1591    6.3414   10.0270  7.00e+01
   5.0122    5.4408   10.9388  7.00e+01
   5.3124    5.3875   10.8557  7.00e+01
   5.2627    5.5257   10.9652  7.00e+01
   5.1228    5.3967   10.8775  7.00e+01
   4.5917    6.7549    9.3328  7.00e+01
   4.4481    6.7890    9.2456  7.00e+01
   4.6603    6.8332    9.1903  7.00e+01
   4.5411    6.8748    9.3330  7.00e+01
   4.0675    6.9219    8.8530  6.79e+01
   3.8827    7.4911    8.6748  6.79e+01
   4.2221    7.3346    8.7078  6.79e+01
   3.9283    5.7663    2.9346  6.79e+01
   4.3577    5.8241    2.9158  6.79e+01
   4.1942    5.9085    2.7135  6.79e+01
   4.2683    5.7570    2.9096  6.79e+01
   4.7507    6.1560    6.3519  7.00e+01
   4.8236    6.0176    6.3011  7.00e+01
   4.7351    6.1159    6.2672  7.00e+01
   5.1128    6.1989    8.6167  7.00e+01
   5.0521    5.9449    8.5858  7.00e+01
   5.3113    6.0884    8.6414  7.00e+01
   5.2573    6.0124    8.5894  7.00e+01
   4.2227    7.5886    4.9525  6.58e+01
   4.8936    7.6848    4.6005  6.58e+01
   4.8481    8.4707    4.8536  6.58e+01
   4.6652    7.7259    5.0487  6.58e+01
   5.1965    5.5495    8.6232  7.00e+01
   5.1885    5.5661    8.5732  7.00e+01
   5.1085    5.6219    8.5430  7.00e+01
   5.1991    5.3314    8.5526  7.00e+01
   5.8090    5.9550   10.8678  6.79e+01
   5.7991    5.6563   11.0781  6.79e+01
   6.2159    5.9570   11.1011  6.79e+01
   4.9365    6.5786    7.8813  7.00e+01
   4.8588    6.6801    7.9671  7.00e+01
   4.8804    6.6432    8.0103  7.00e+01
   5.2457    8.0992   10.4633  6.79e+01
   5.4809    8.0657   10.3485  6.79e+01
   5.2937    7.6181   10.4329  6.79e+01
   5.2297    7.9488   10.1996  6.79e+01
   5.7372    5.4274   13.7853  6.79e+01
   5.7825    5.4089   13.9215  6.79e+01
   5.6539    5.3028   13.9336  6.79e+01
   4.6784    6.2250    5.2831  7.00e+01
   4.5406    6.1919    5.3189  7.00e+01
   4.4742    5.9843    5.3745  7.00e+01
   4.3981    6.1594    5.3576  7.00e+01
   4.6436    6.4925    5.6051  7.00e+01
   4.4264    6.4331    5.5915  7.00e+01
   4.4179    6.4337    5.6367  7.00e+01
   5.9270    4.9838   11.0627  6.79e+01
   5.8425    4.6978   10.9015  6.79e+01
   6.0959    4.5296   10.8583  6.79e+01
   5.1854    5.9276   10.9989  7.00e+01
   5.2465    5.8912   11.0163  7.00e+01
   5.0483    5.7159   11.0042  7.00e+01
   5.1884    5.7705   11.0224  7.00e+01
  14.4050    2.5613   18.9603  6.16e+01
  13.8026    3.8376   19.2190  6.16e+01
  10.7277    1.1045   18.5637  6.16e+01
  13.4248    4.0390   19.1491  6.16e+01
   6.1437    4.5632   14.3181  6.79e+01
   6.1644    4.8912   14.2413  6.79e+01
   6.0140    4.4091   14.3212  6.79e+01
   4.8443    4.5000    4.9225  6.79e+01
   4.3856    4.5210    5.1119  6.79e+01
   4.6219    4.6605    5.2276  6.79e+01
   3.9973    6.1931   14.7124  6.58e+01
   4.9303    5.8136   15.0069  6.58e+01
   4.8131    5.7474   14.6331  6.58e+01
   4.2879    5.0041   14.6833  6.58e+01
   5.0216    6.4603    9.3897  7.00e+01
   5.1380    6.2917    9.4043  7.00e+01
   5.1583    6.5039    9.3525  7.00e+01
   5.4394    6.0048    5.9372  6.79e+01
   5.0904    6.1026    6.1719  6.79e+01
   5.0539    5.8915    6.1069  6.79e+01
   5.3517    5.7891    6.1279  6.79e+01
   5.0639    6.8173    7.0867  6.79e+01
   5.5252    6.3284    7.0321  6.79e+01
   5.3321    6.5269    7.2055  6.79e+01
   5.4261    6.2900    7.0398  6.79e+01
   4.8582    6.5003    6.7397  6.99e+01
   4.9145    6.5468    6.8841  6.99e+01
   4.9845    6.4167    6.7418  6.99e+01
   4.8084    6.3843    6.7535  6.99e+01
   4.4395    5.3253    7.8765  6.99e+01
   4.5616    5.4100    7.9745  6.99e+01
   4.5801    5.3875    7.9923  6.99e+01
   4.5690    5.9080    5.6693  6.99e+01
   4.3858    5.6457    5.6669  6.99e+01
   4.4422    5.7929    5.7157  6.99e+01
   4.6273    5.3842    7.5204  6.99e+01
   4.4498    5.5263    7.3867  6.99e+01
   4.6683    5.5042    7.4691  6.99e+01
   4.5957    5.6049    7.5008  6.99e+01
   5.1901    5.9696   10.9896  6.99e+01
   5.1903    6.1920   10.9105  6.99e+01
   5.1921    6.1576   10.9378  6.99e+01
   5.0382    5.9815   10.8662  6.99e+01
   5.9782    3.2230   11.9794  6.58e+01
   5.8005    2.9174   12.2706  6.58e+01
   6.0223    3.1521   12.2987  6.58e+01
   4.7320    6.4634   10.6588  6.99e+01
   4.8168    6.4630   10.5453  6.99e+01
   4.9328    6.4604   10.5290  6.99e+01
   4.9817    6.3759   10.5705  6.99e+01
   4.9877    5.8202    6.2048  6.99e+01
   4.9902    5.6329    6.1951  6.99e+01
   4.7312    5.8781    6.1273  6.99e+01
   5.6540    6.2251   12.8655  6.78e+01
   6.0385    6.1343   13.1246  6.78e+01
   5.9937    6.0132   12.9626  6.78e+01
   5.7810    5.7221   13.0954  6.78e+01
   4.8373    6.8043   10.1430  6.99e+01
   4.9418    6.5988   10.0261  6.99e+01
   4.8092    6.5817   10.1136  6.99e+01
   4.3801    4.9067   11.7125  6.78e+01
   4.6735    4.8243   11.6499  6.78e+01
   4.9162    4.5638   11.7140  6.78e+01
   4.5061    5.5113    8.2303  6.99e+01
   4.5221    5.5631    8.2055  6.99e+01
   4.4693    5.4176    8.2539  6.99e+01
   3.9134    7.3293    5.2840  6.78e+01
   4.3142    7.2696    5.4636  6.78e+01
   3.9666    7.0526    5.4581  6.78e+01
   4.6788    5.7719    9.8417  6.99e+01
   4.6600    5.8246    9.7355  6.99e+01
   4.6806    5.7984    9.7317  6.99e+01
   5.1695    5.0473   10.0393  6.99e+01
   5.2549    5.1379   10.0179  6.99e+01
   5.1803    5.2567   10.1340  6.99e+01
   5.2285    5.1449   10.0220  6.99e+01
   4.5311    7.9290   10.5110  6.78e+01
   4.5532    7.8260   10.7778  6.78e+01
   4.4441    7.9013   10.6642  6.78e+01
   5.1759    5.0163    9.7871  6.99e+01
   5.1194    5.0814    9.6915  6.99e+01
   5.1954    5.2763    9.7203  6.99e+01
   5.2341    5.0060    9.7369  6.99e+01
   4.6438    6.0707   13.0274  6.78e+01
   4.8919    6.0186   12.8526  6.78e+01
   4.4511    5.9567   12.9518  6.78e+01
   5.0809    5.5775   11.0335  6.99e+01
   5.1582    5.5362   11.0167  6.99e+01
   5.1053    5.4813   11.1251  6.99e+01
   4.8086    5.4917    6.6067  6.99e+01
   4.9510    5.3760    6.5771  6.99e+01
   4.9305    5.4177    6.7045  6.99e+01
   5.2767    6.4313   10.4875  6.99e+01
   5.2587    6.3456   10.3530  6.99e+01
   5.2027    6.4341   10.4245  6.99e+01
   5.1371    6.4160   10.4530  6.99e+01
   4.5311    5.3642    7.2100  6.99e+01
   4.4275    5.3469    7.0662  6.99e+01
   4.5904    5.5047    7.1313  6.99e+01
   5.2553    5.6287    8.1208  6.99e+01
   5.0258    5.8802    8.1971  6.99e+01
   5.1543    5.7827    8.1283  6.99e+01
   5.0533    5.2944    5.6468  6.78e+01
   5.2385    5.5470    5.8333  6.78e+01
   5.3981    5.3380    5.7817  6.78e+01
   4.3684    5.9478    2.0432  6.78e+01
   3.9026    5.8039    2.0335  6.78e+01
   4.2236    5.9598    2.1535  6.78e+01
   4.3856    6.0801    5.1256  6.99e+01
   4.4095    5.9684    5.2413  6.99e+01
   4.5721    6.2207    5.1637  6.99e+01
   4.4310    7.5798    7.4689  6.78e+01
   4.4364    7.6563    7.3012  6.78e+01
   4.7028    7.8823    7.5364  6.78e+01
   4.7559    7.7468    7.2455  6.78e+01
   4.5686    6.4362    5.5668  6.99e+01
   4.6166    6.3882    5.4464  6.99e+01
   4.5395    6.3726    5.4180  6.99e+01
   4.5406    6.3584    5.4474  6.99e+01
   5.3047    7.2054   11.9754  6.78e+01
   5.0970    6.8904   11.9673  6.78e+01
   5.1044    7.0444   12.0540  6.78e+01
   5.4474    4.3278   11.1096  6.78e+01
   5.5244    4.2202   11.0883  6.78e+01
   5.0392    4.0575   11.0198  6.78e+01
   4.5460    6.8165    6.4969  6.99e+01
   4.6860    6.5636    6.5046  6.99e+01
   4.6045    6.8574    6.5122  6.99e+01
   4.4100    5.9193    5.5348  6.99e+01
   4.4984    5.7481    5.5152  6.99e+01
   4.5503    5.8369    5.5286  6.99e+01
   4.9819    5.7447   10.9445  6.99e+01
   4.8249    5.8936   10.9719  6.99e+01
   4.7668    5.8300   10.9882  6.99e+01
   4.6811    5.3129    8.5514  6.99e+01
   4.4339    5.4363    8.5489  6.99e+01
   4.3998    5.3399    8.6425  6.99e+01
   4.3805    5.4684    8.5476  6.99e+01
   4.7504    5.2175    9.2443  6.99e+01
   4.9976    5.0415    9.2928  6.99e+01
   4.9130    5.1095    9.2059  6.99e+01
   5.1418    5.2515   10.3502  6.99e+01
   5.2542    5.0385   10.4426  6.99e+01
   5.0266    5.0863   10.4864  6.99e+01
   4.7806    5.0843    8.9547  6.99e+01
   4.7834    5.1242    8.9925  6.99e+01
   4.7033    5.2586    8.9511  6.99e+01
   5.4968    3.9032   10.4730  6.78e+01
   5.0806    3.9841   10.2445  6.78e+01
   5.6248    4.3588   10.4313  6.78e+01
   5.1712    3.6688   13.2315  6.57e+01
   5.6089    2.5705   13.4133  6.57e+01
   5.1275    2.7873   13.1725  6.57e+01
   7.0864    6.1422   14.1004  6.57e+01
   6.7496    6.2309   14.0407  6.57e+01
   7.3914    5.8425   14.2566  6.57e+01
   4.7974    5.0892    8.6624  6.99e+01
   4.9969    5.0427    8.6543  6.99e+01
   4.9342    5.2059    8.5751  6.99e+01
   5.1856    5.4222    8.2037  6.99e+01
   5.2304    5.5747    8.2867  6.99e+01
   5.3021    5.4951    8.2158  6.99e+01
   4.1209    6.0058    1.4187  6.78e+01
   4.0691    5.9126    1.4325  6.78e+01
   3.7687    6.2293    1.3848  6.78e+01
   5.1679    5.9224   11.1788  6.99e+01
   5.0698    5.8403   11.1747  6.99e+01
   5.3059    5.7469   11.2756  6.99e+01
   4.6961    6.5674    7.5601  6.99e+01
   4.7470    6.7245    7.5607  6.99e+01
   4.8440    6.7195    7.6518  6.99e+01
   4.8393    6.1746   10.9810  6.99e+01
   4.7241    6.1714   10.8497  6.99e+01
   4.8051    6.0275   10.9611  6.99e+01
   5.0497    6.3914    9.1339  6.99e+01
   5.2190    6.4124    9.1091  6.99e+01
   5.1826    6.2870    9.1221  6.99e+01
   5.0375    5.1514    9.4698  6.99e+01
   5.2256    5.0514    9.4126  6.99e+01
   5.1695    5.0604    9.4963  6.99e+01
   4.9552    4.8854    4.7168  6.78e+01
   4.9554    4.5248    4.7137  6.78e+01
   4.8111    4.4112    4.7171  6.78e+01
   4.8805    5.0426    9.6633  6.99e+01
