NLLOC "./loc/vinti.19950422.151153.grid0" "LOCATED" "Location completed."
SIGNATURE "Anthony Lomax - ALomax Scientific   NLLoc:v6.00.0 18Mar2011 16h17m12"
COMMENT "1995 Vintimiglia Sequence (NonLinLoc Sample Location)"
GRID  101 101 21  -50 -50 0  1 1 1 PROB_DENSITY
SEARCH OCTREE nInitial 400 nEvaluated 10016 smallestNodeSide 0.156250/0.156250/0.082031 oct_tree_integral 7.802625e+00 scatter_volume 7.802625e+00
HYPOCENTER  x 4.60938 y 4.92188 z 10.7051  OT 51.049  ix -1 iy -1 iz -1
GEOGRAPHIC  OT 1995 04 22  15 11    51.049  Lat 43.7943 Long 7.55728 Depth 10.7051
QUALITY  Pmax 2.41849e+38 MFmin 24.0434 MFmax 24.262 RMS 0.0956408 Nphs 15 Gap 184.194 Dist 10.214 Mamp  -9.9 0 Mdur  -9.9 0
VPVSRATIO  VpVsRatio -1  Npair 1  Diff 0
STATISTICS  ExpectX 4.49607 Y 4.24132 Z 9.51453  CovXX 0.24818 XY 0.198469 XZ 0.464872 YY 3.25845 YZ 3.13846 ZZ 6.57255 EllAz1  88.8141 Dip1  -4.76196 Len1  0.868243 Az2  355.97 Dip2  -30.7764 Len2  2.19967 Len3  5.476052e+00
STAT_GEOG  ExpectLat 43.7882 Long 7.55586 Depth 9.51453
TRANSFORM  LAMBERT RefEllipsoid Clarke-1880  LatOrig 43.750000  LongOrig 7.500000  FirstStdParal 43.199300  SecondStdParal 44.996100  RotCW 0.000000
QML_OriginQuality  assocPhCt 0  usedPhCt 15  assocStaCt 0  usedStaCt 0  depthPhCt 0  stdErr 0.0956408  azGap 184.194  secAzGap 0  gtLevel   minDist 0 maxDist 0 medDist 0
QML_OriginUncertainty  horUnc -1  minHorUnc 0  maxHorUnc 0  azMaxHorUnc 90
FOCALMECH  Hyp  43.7943 7.55728 10.7051 Mech  0 0 0 mf  0 nObs 0
PHASE ID Ins Cmp On Pha  FM Date     HrMn   Sec     Err  ErrMag    Coda      Amp       Per       PriorWt  >   TTpred    Res       Weight    StaLoc(X  Y         Z)        SDist    SAzim  RAz  RDip RQual    Tcorr       TTerr
RONE         ?    ?    ? P      ? 19950422 1511   53.6300 GAU  1.00e-01 -1.00e+00 -1.00e+00 -1.00e+00    1.0000 >    2.7362   -0.1552    0.9495    7.8887   14.5952   -0.3000   10.2140  18.73  18.7 131.6  9     0.0000   -1.0000
RONE         ?    ?    ? S      ? 19950422 1511   55.7000 GAU  1.00e-01 -1.00e+00 -1.00e+00 -1.00e+00    1.0000 >    4.5969    0.0542    1.2120    7.8887   14.5952   -0.3000   10.2140  18.73  18.7 131.6  9     0.0000   -1.0000
SBF          ?    ?    P G      ? 19950422 1511   54.3200 GAU  1.00e-01 -1.00e+00 -1.00e+00 -1.00e+00    1.0000 >    3.1435    0.1275    0.9748   -5.2384   12.6113   -0.8470   12.4942 307.98 308.0 124.4  9     0.0000   -1.0000
NEGI         ?    ?    ? S      ? 19950422 1511   56.4200 GAU  1.00e-01 -1.00e+00 -1.00e+00 -1.00e+00    1.0000 >    5.3662   -0.0352    1.2673   16.3893   10.8705   -0.6400   13.1967  63.21  63.2 122.3  9     0.0400   -1.0000
NEGI         ?    ?    ? P      ? 19950422 1511   54.1300 GAU  1.00e-01 -1.00e+00 -1.00e+00 -1.00e+00    1.0000 >    3.1942   -0.1531    0.9577   16.3893   10.8705   -0.6400   13.1967  63.21  63.2 122.3  9     0.0400   -1.0000
REVF         ?    ?    P G      ? 19950422 1511   53.8700 GAU  1.00e-01 -1.00e+00 -1.00e+00 -1.00e+00    1.0000 >    3.6613   -0.8403    0.0079  -10.6730   -1.1024   -0.7000   16.4269 248.49 248.5 115.8  9     0.0000   -1.0000
CEPP         ?    ?    ? S      ? 19950422 1511   58.3400 GAU  1.00e-01 -1.00e+00 -1.00e+00 -1.00e+00    1.0000 >    7.2627    0.0283    1.2245   19.7971   18.5085   -1.0800   20.3780  48.18  48.2 110.3  9     0.0000   -1.0000
CEPP         ?    ?    ? P      ? 19950422 1511   55.3200 GAU  1.00e-01 -1.00e+00 -1.00e+00 -1.00e+00    1.0000 >    4.3231   -0.0520    1.2514   19.7971   18.5085   -1.0800   20.3780  48.18  48.2 110.3  9     0.0000   -1.0000
AURF         ?    ?    P G      ? 19950422 1511   55.5400 GAU  1.00e-01 -1.00e+00 -1.00e+00 -1.00e+00    1.0000 >    4.4354    0.0556    1.2087  -13.8607   15.2716   -1.0400   21.1722 299.26 299.3 109.2  9     0.0000   -1.0000
AURF         ?    ?    ? p      ? 19950422 1511   55.5700 GAU  5.00e-01 -1.00e+00 -1.00e+00 -1.00e+00    1.0000 >    4.4354    0.0856    0.5007  -13.8607   15.2716   -1.0400   21.1722 299.26 299.3 109.2  9     0.0000   -1.0000
AUTN         ?    ?    P G      ? 19950422 1511   56.0300 GAU  1.00e-01 -1.00e+00 -1.00e+00 -1.00e+00    1.0000 >    5.1736   -0.1925    0.7954   -5.8149   27.2765   -2.0690   24.6657 335.00 335.0 106.1  9     0.0000   -1.0000
AUTN         ?    ?    i p      u 19950422 1511   56.1800 GAU  1.00e-01 -1.00e+00 -1.00e+00 -1.00e+00    1.0000 >    5.1736   -0.0425    1.2621   -5.8149   27.2765   -2.0690   24.6657 335.00 335.0 106.1  9     0.0000   -1.0000
IMI          ?    ?    ? S      ? 19950422 1512    0.8500 GAU  1.00e-01 -1.00e+00 -1.00e+00 -1.00e+00    1.0000 >    9.6725    0.1285    0.9469   31.5793   17.9062   -0.8400   29.9328  64.29  64.3 100.5  9     0.0000   -1.0000
IMI          ?    ?    ? P      ? 19950422 1511   56.8700 GAU  1.00e-01 -1.00e+00 -1.00e+00 -1.00e+00    1.0000 >    5.7575    0.0636    1.1813   31.5793   17.9062   -0.8400   29.9328  64.29  64.3 100.5  9     0.0000   -1.0000
MVIF         ?    ?    P G      ? 19950422 1511   57.6400 GAU  1.00e-01 -1.00e+00 -1.00e+00 -1.00e+00    1.0000 >    6.5979   -0.0069    1.2600  -27.9180   16.3343   -1.4800   34.4713 289.33 289.3  98.0  9     0.0000   -1.0000
0666         ?    ?    e p      d 19950422 1511   53.0400 GAU  1.00e-01 -1.00e+00 -1.00e+00 -1.00e+00    1.0000 >    0.0000    0.0000    0.0000 -100000000000000000000.0000 -100000000000000000000.0000 -100000000000000000000.0000    0.0000   0.00   0.0   0.0  0     0.0000   -1.0000
PZZ          ?    ?    ? S      ? 19950422 1512   15.4000 GAU  1.00e+00 -1.00e+00 -1.00e+00 -1.00e+00    1.0000 >    0.0000    0.0000    0.0000 -100000000000000000000.0000 -100000000000000000000.0000 -100000000000000000000.0000    0.0000   0.00   0.0   0.0  0     0.0000   -1.0000
0665         ?    ?    e p      d 19950422 1511   53.0800 GAU  1.00e-01 -1.00e+00 -1.00e+00 -1.00e+00    1.0000 >    0.0000    0.0000    0.0000 -100000000000000000000.0000 -100000000000000000000.0000 -100000000000000000000.0000    0.0000   0.00   0.0   0.0  0     0.0000   -1.0000
.obs         ?    ?    i p      d 19950422 1511   54.5200 GAU  1.00e-01 -1.00e+00 -1.00e+00 -1.00e+00    1.0000 >    0.0000    0.0000    0.0000 -100000000000000000000.0000 -100000000000000000000.0000 -100000000000000000000.0000    0.0000   0.00   0.0   0.0  0     0.0000   -1.0000
ENR          ?    ?    ? P      ? 19950422 1512    0.0800 GAU  1.00e-01 -1.00e+00 -1.00e+00 -1.00e+00    1.0000 >    0.0000    0.0000    0.0000 -100000000000000000000.0000 -100000000000000000000.0000 -100000000000000000000.0000    0.0000   0.00   0.0   0.0  0     0.0000   -1.0000
STV          ?    ?    ? P      ? 19950422 1512    0.5800 GAU  1.00e-01 -1.00e+00 -1.00e+00 -1.00e+00    1.0000 >    0.0000    0.0000    0.0000 -100000000000000000000.0000 -100000000000000000000.0000 -100000000000000000000.0000    0.0000   0.00   0.0   0.0  0     0.0000   -1.0000
ROB          ?    ?    ? P      ? 19950422 1512    1.7800 GAU  5.00e-01 -1.00e+00 -1.00e+00 -1.00e+00    1.0000 >    0.0000    0.0000    0.0000 -100000000000000000000.0000 -100000000000000000000.0000 -100000000000000000000.0000    0.0000   0.00   0.0   0.0  0     0.0000   -1.0000
FIN          ?    ?    ? P      ? 19950422 1512    3.3300 GAU  5.00e-01 -1.00e+00 -1.00e+00 -1.00e+00    1.0000 >    0.0000    0.0000    0.0000 -100000000000000000000.0000 -100000000000000000000.0000 -100000000000000000000.0000    0.0000   0.00   0.0   0.0  0     0.0000   -1.0000
FRF          ?    ?    ? G      ? 19950422 1512    4.7000 GAU  1.00e-01 -1.00e+00 -1.00e+00 -1.00e+00    1.0000 >    0.0000    0.0000    0.0000 -100000000000000000000.0000 -100000000000000000000.0000 -100000000000000000000.0000    0.0000   0.00   0.0   0.0  0     0.0000   -1.0000
PZZ          ?    ?    ? P      ? 19950422 1512    5.7900 GAU  1.00e+00 -1.00e+00 -1.00e+00 -1.00e+00    1.0000 >    0.0000    0.0000    0.0000 -100000000000000000000.0000 -100000000000000000000.0000 -100000000000000000000.0000    0.0000   0.00   0.0   0.0  0     0.0000   -1.0000
ENR          ?    ?    ? S      ? 19950422 1512    5.8000 GAU  1.00e-01 -1.00e+00 -1.00e+00 -1.00e+00    1.0000 >    0.0000    0.0000    0.0000 -100000000000000000000.0000 -100000000000000000000.0000 -100000000000000000000.0000    0.0000   0.00   0.0   0.0  0     0.0000   -1.0000
STV          ?    ?    ? S      ? 19950422 1512    6.7100 GAU  1.00e-01 -1.00e+00 -1.00e+00 -1.00e+00    1.0000 >    0.0000    0.0000    0.0000 -100000000000000000000.0000 -100000000000000000000.0000 -100000000000000000000.0000    0.0000   0.00   0.0   0.0  0     0.0400   -1.0000
LMR          ?    ?    ? G      ? 19950422 1512    7.4000 GAU  1.00e-01 -1.00e+00 -1.00e+00 -1.00e+00    1.0000 >    0.0000    0.0000    0.0000 -100000000000000000000.0000 -100000000000000000000.0000 -100000000000000000000.0000    0.0000   0.00   0.0   0.0  0     0.0000   -1.0000
LRG          ?    ?    ? G      ? 19950422 1512    8.9000 GAU  1.00e-01 -1.00e+00 -1.00e+00 -1.00e+00    1.0000 >    0.0000    0.0000    0.0000 -100000000000000000000.0000 -100000000000000000000.0000 -100000000000000000000.0000    0.0000   0.00   0.0   0.0  0     0.0000   -1.0000
ROB          ?    ?    ? S      ? 19950422 1512    9.1100 GAU  5.00e-01 -1.00e+00 -1.00e+00 -1.00e+00    1.0000 >    0.0000    0.0000    0.0000 -100000000000000000000.0000 -100000000000000000000.0000 -100000000000000000000.0000    0.0000   0.00   0.0   0.0  0     0.0000   -1.0000
FIN          ?    ?    ? S      ? 19950422 1512   11.5100 GAU  5.00e-01 -1.00e+00 -1.00e+00 -1.00e+00    1.0000 >    0.0000    0.0000    0.0000 -100000000000000000000.0000 -100000000000000000000.0000 -100000000000000000000.0000    0.0000   0.00   0.0   0.0  0     0.0000   -1.0000
END_PHASE
SCATTER Nsamples 4959
   4.1688    4.1234   10.0858  9.29e+01
   4.0742    4.3457   10.0387  9.29e+01
   4.3271    4.2264   10.1679  9.29e+01
   4.2149    4.1339   10.1039  9.29e+01
   3.9702    1.0766    6.7691  9.09e+01
   4.2489    0.9437    6.5639  9.09e+01
   3.8705    0.7130    6.5918  9.09e+01
   4.1412    7.0893   10.1984  9.09e+01
   4.1123    7.2278   10.3634  9.09e+01
   4.0892    7.4727   10.3700  9.09e+01
   4.4925    4.3309   11.2699  9.29e+01
   4.6308    4.1729   11.1892  9.29e+01
   4.4935    4.1684   11.2286  9.29e+01
   4.3491    4.4670   10.5346  9.29e+01
   4.3642    4.5031   10.5068  9.29e+01
   4.3171    4.5612   10.5663  9.29e+01
   4.5615    1.2045    7.6536  9.08e+01
   4.6304    0.6863    7.6415  9.08e+01
   4.9433    0.7871    7.6062  9.08e+01
   4.8822    5.7900   10.5326  9.29e+01
   4.8707    5.6455   10.5528  9.29e+01
   4.8065    5.7331   10.5345  9.29e+01
   4.9248    1.8510    0.4446  9.08e+01
   4.6799    1.7620    0.5797  9.08e+01
   4.9243    1.3573    0.5555  9.08e+01
   4.5693    1.8698    0.6136  9.08e+01
   4.9618    6.0991   12.0565  9.29e+01
   4.8098    5.9965   12.0842  9.29e+01
   4.8767    6.1189   11.9818  9.29e+01
   4.4466    6.8358   11.2407  9.29e+01
   4.6449    6.6884   11.2337  9.29e+01
   4.4223    6.6565   11.2498  9.29e+01
   3.6301    1.4387    3.2515  8.87e+01
   3.2936    1.9084    2.8910  8.87e+01
   3.3209    2.4859    3.0419  8.87e+01
   3.2659    1.6702    3.1911  8.87e+01
   4.3683    1.0405    5.5346  9.08e+01
   3.8487    0.8220    5.3448  9.08e+01
   4.2596    0.7847    5.4710  9.08e+01
   4.7555    6.4436   11.6351  9.29e+01
   4.9562    6.5320   11.6197  9.29e+01
   4.8277    6.5419   11.4975  9.29e+01
   4.7114    6.3895   11.5625  9.29e+01
   3.8554    7.8049   11.9798  9.08e+01
   3.9666    7.6525   12.0864  9.08e+01
   4.2061    7.5576   11.8798  9.08e+01
   3.4321    1.4721    6.0041  9.08e+01
   3.5340    1.6089    6.0397  9.08e+01
   3.2863    1.2911    6.1539  9.08e+01
   4.2810    5.6689   11.2837  9.29e+01
   4.2338    5.6315   11.2416  9.29e+01
   4.1301    5.8606   11.1836  9.29e+01
   4.2370    5.8680   11.2440  9.29e+01
   4.4521    3.2800    9.3881  9.29e+01
   4.4887    3.2823    9.4182  9.29e+01
   4.5775    3.3187    9.5109  9.29e+01
   4.1272    5.8447   10.1742  9.29e+01
   4.2442    5.6459   10.2811  9.29e+01
   4.2882    5.6970   10.2269  9.29e+01
   4.2465    5.9228   10.2231  9.29e+01
   4.7080    3.6652    9.4886  9.29e+01
   4.9577    3.4763    9.3779  9.29e+01
   4.8572    3.6662    9.4581  9.29e+01
   4.9571    3.5379    9.4143  9.29e+01
   4.5903    7.5192   10.8912  9.08e+01
   4.4562    7.5879   10.9503  9.08e+01
   4.9794    8.0795   10.8864  9.08e+01
   4.7947    3.7000   10.6866  9.29e+01
   4.9860    3.4838   10.7951  9.29e+01
   4.8975    3.4872   10.6956  9.29e+01
   4.9864    3.5544   10.6984  9.29e+01
   4.6193    5.6865   12.0414  9.29e+01
   4.6370    5.6675   12.0368  9.29e+01
   4.5475    5.7522   12.0162  9.29e+01
   4.7619    2.0525    6.5432  9.08e+01
   4.7329    2.2353    6.4080  9.08e+01
   4.5341    2.3084    6.3182  9.08e+01
   4.8467    2.2284    6.4089  9.08e+01
   4.3310    6.0122   11.1353  9.29e+01
   4.3428    6.0946   11.1065  9.29e+01
   4.2144    6.1928   11.0828  9.29e+01
   4.6897    3.2403    9.9583  9.29e+01
   4.9781    3.3894    9.9722  9.29e+01
   4.7824    3.3223    9.9084  9.29e+01
   5.6071    2.5029   10.7546  9.08e+01
   5.5948    3.0882   10.5471  9.08e+01
   5.2315    2.9366   10.5526  9.08e+01
   5.4111    2.7250   10.6174  9.08e+01
   3.4948    2.9081    9.7598  9.08e+01
   3.4626    2.9686    9.7668  9.08e+01
   3.1847    2.7045    9.5412  9.08e+01
   4.2693    3.9427    7.4235  9.08e+01
   4.2287    4.3102    7.2314  9.08e+01
   4.0206    4.1391    7.3099  9.08e+01
   4.0381    4.2635    7.3885  9.08e+01
   3.7684    0.6819    7.3188  9.08e+01
   4.2404    0.7597    7.2426  9.08e+01
   3.8483    0.8013    7.4990  9.08e+01
   4.4932    6.4520   12.0583  9.29e+01
   4.4349    6.4307   12.0821  9.29e+01
   4.4335    6.3272   12.0627  9.29e+01
   4.5610    3.5749    7.2706  9.08e+01
   4.8145    3.2588    7.3445  9.08e+01
   4.5497    3.6490    7.4565  9.08e+01
   4.8599    3.4394    7.3065  9.08e+01
   4.4775    1.4277    0.3168  9.08e+01
   4.6899    1.6266    0.2060  9.08e+01
   4.8813    1.3173    0.1048  9.08e+01
   4.2879    4.3542    9.3751  9.28e+01
   4.0940    4.3624    9.4634  9.28e+01
   4.1654    4.3388    9.4104  9.28e+01
   4.1217    6.0798   10.7280  9.28e+01
   4.1368    6.1574   10.7164  9.28e+01
   4.2629    6.2007   10.7766  9.28e+01
   4.5946    0.7852    8.1827  9.08e+01
   4.8123    0.7891    7.9950  9.08e+01
   4.8409    1.2321    7.8853  9.08e+01
   4.4774    1.0265    8.1950  9.08e+01
   4.5659    0.8410    1.2473  9.08e+01
   4.5724    0.7771    1.0531  9.08e+01
   4.8554    0.7670    1.1171  9.08e+01
   3.9246    6.0073    8.2897  9.08e+01
   3.7589    5.8744    8.3442  9.08e+01
   3.8868    5.8206    8.2917  9.08e+01
   4.8667    3.9489   11.2338  9.28e+01
   4.8066    3.9857   11.2445  9.28e+01
   4.8350    3.9959   11.2068  9.28e+01
   4.5694    0.7260    5.1034  9.08e+01
   4.7069    1.0254    4.9310  9.08e+01
   4.3966    0.6918    5.1374  9.08e+01
   4.4198    3.4004    9.7339  9.28e+01
   4.6185    3.2651    9.8049  9.28e+01
   4.5744    3.3143    9.7765  9.28e+01
   4.6213    3.1427    9.7830  9.28e+01
   4.4240    3.5770    8.8900  9.28e+01
   4.5050    3.4492    8.9920  9.28e+01
   4.4863    3.6499    9.0091  9.28e+01
   4.5115    1.2757    0.7605  9.08e+01
   4.3789    1.4439    0.7344  9.08e+01
   4.6310    1.5258    0.9523  9.08e+01
   3.9420    1.4700    0.8613  9.08e+01
   4.1043    1.3764    0.9217  9.08e+01
   3.7535    1.7603    0.8168  9.08e+01
   3.9091    1.8131    0.8822  9.08e+01
   4.4685    6.6338   11.8957  9.28e+01
   4.6366    6.5786   11.9704  9.28e+01
   4.6660    6.5750   11.8813  9.28e+01
   4.2736    1.7510    0.9913  9.08e+01
   3.9029    1.8197    1.1049  9.08e+01
   4.1363    1.6262    1.0027  9.08e+01
   4.7406    6.2584   11.9015  9.28e+01
   4.9090    6.3376   11.8969  9.28e+01
   4.9390    6.3248   11.8316  9.28e+01
   4.2692    1.4589    4.2873  9.07e+01
   4.2174    1.3648    4.5065  9.07e+01
   4.1525    1.7623    4.4886  9.07e+01
   4.7150    3.1611    9.5326  9.28e+01
   4.9538    3.2257    9.6253  9.28e+01
   4.7776    3.1514    9.5414  9.28e+01
   3.4752    2.4214    5.6408  9.07e+01
   3.6621    2.4423    5.7478  9.07e+01
   3.2012    2.4260    5.6016  9.07e+01
   3.6231    1.8877    5.6039  9.07e+01
   4.4129    0.9627    0.8381  9.07e+01
   4.4180    0.8241    0.9337  9.07e+01
   4.4770    1.2447    0.9553  9.07e+01
   4.4575    3.2445    9.1340  9.28e+01
   4.5806    3.2289    9.1459  9.28e+01
   4.5346    3.2320    9.1477  9.28e+01
   4.0524    0.7969    4.7446  9.07e+01
   4.0751    1.1688    4.7093  9.07e+01
   4.2566    1.0647    4.8499  9.07e+01
   4.1836    4.2621   10.4480  9.28e+01
   4.3578    4.2288   10.4841  9.28e+01
   4.1012    4.2689   10.4678  9.28e+01
   4.2032    5.0298    9.5568  9.28e+01
   4.1730    5.2471    9.6665  9.28e+01
   4.2536    5.1926    9.5690  9.28e+01
   4.1715    4.8043    9.3716  9.28e+01
   4.3409    4.9352    9.5027  9.28e+01
   4.3227    4.7204    9.4583  9.28e+01
   4.6052    4.8594    9.3359  9.28e+01
   4.4999    4.8913    9.2806  9.28e+01
   4.5292    4.7014    9.2803  9.28e+01
   3.9764    3.3369    4.5517  8.86e+01
   4.7554    2.5188    4.1628  8.86e+01
   4.6058    3.0661    4.1017  8.86e+01
   4.5100    3.7422   10.5585  9.28e+01
   4.5914    3.6786   10.6302  9.28e+01
   4.6242    3.4438   10.5650  9.28e+01
   4.5868    1.8808    0.1390  9.07e+01
   4.4851    2.1213    0.2359  9.07e+01
   4.8365    2.4528    0.3101  9.07e+01
   4.9715    5.6543   12.1884  9.28e+01
   4.7611    5.6348   12.1638  9.28e+01
   4.8154    5.7273   12.2347  9.28e+01
   4.5787    5.3079    9.4738  9.28e+01
   4.6545    5.1997    9.3727  9.28e+01
   4.5034    5.1103    9.4465  9.28e+01
   4.6933    1.2121    4.8311  9.07e+01
   4.9059    0.9553    4.8062  9.07e+01
   4.5813    0.7476    4.7837  9.07e+01
   4.7451    1.0094    4.8884  9.07e+01
   2.6938    3.7040    3.5213  8.86e+01
   3.6591    2.7301    3.3965  8.86e+01
   3.1491    2.7004    3.8110  8.86e+01
   4.8319    6.4343   11.3196  9.28e+01
   4.8282    6.2617   11.1609  9.28e+01
   4.9847    6.3232   11.2164  9.28e+01
   4.1839    3.9647    9.6641  9.28e+01
   4.2084    3.7806    9.5564  9.28e+01
   4.1803    3.8944    9.6449  9.28e+01
   4.5402    4.5353    9.0575  9.28e+01
   4.4352    4.5844    9.0583  9.28e+01
   4.4917    4.5128    9.0426  9.28e+01
   4.2856    5.4036    9.7398  9.28e+01
   4.2053    5.5803    9.7535  9.28e+01
   4.3229    5.3245    9.7753  9.28e+01
   3.9469    1.1635    4.5104  9.07e+01
   3.9267    0.7679    4.3107  9.07e+01
   4.0286    0.6399    4.4452  9.07e+01
   4.8720    3.4085    9.4326  9.28e+01
   4.8886    3.2923    9.4306  9.28e+01
   4.7343    3.1479    9.4801  9.28e+01
   4.9515    3.2948   10.3040  9.28e+01
   4.8473    3.1443   10.2994  9.28e+01
   4.9693    3.1587   10.2892  9.28e+01
   4.7642    4.5819    1.1758  8.86e+01
   4.6348    4.8893    1.2558  8.86e+01
   4.5213    4.0668    0.9711  8.86e+01
   4.4711    6.2832   10.3840  9.27e+01
   4.6374    6.4098   10.4022  9.27e+01
   4.6853    6.5046   10.3577  9.27e+01
   4.5055    5.4439    9.5916  9.27e+01
   4.5646    5.3142    9.6545  9.27e+01
   4.6174    5.3617    9.5199  9.27e+01
   4.2089    6.2200   11.4497  9.27e+01
   4.2607    6.0999   11.4814  9.27e+01
   4.2094    6.1864   11.4104  9.27e+01
   5.5637    2.9766    9.2211  9.07e+01
   5.0789    3.0431    9.3399  9.07e+01
   5.1650    3.0620    9.3342  9.07e+01
   5.3928    2.6527    9.2046  9.07e+01
   4.2422    4.4050    9.2179  9.27e+01
   4.3559    4.4227    9.2441  9.27e+01
   4.3585    4.4102    9.2039  9.27e+01
   4.2333    3.9913    9.9894  9.27e+01
   4.0794    4.0006    9.8999  9.27e+01
   4.1234    4.0192    9.9276  9.27e+01
   4.5549    3.4134   11.8457  9.07e+01
   4.4915    3.3066   11.9660  9.07e+01
   4.8194    3.5513   11.9706  9.07e+01
   4.9461    4.5598    9.6715  9.27e+01
   4.7776    4.6500    9.6708  9.27e+01
   4.9719    4.6433    9.6260  9.27e+01
   4.5806    3.2290    8.8733  9.27e+01
   4.6778    3.3540    9.0115  9.27e+01
   4.4824    3.4275    8.8737  9.27e+01
   4.4333    6.7593   10.9787  9.27e+01
