NLLOC "./loc/vinti.19950422.154718.grid0" "LOCATED" "Location completed."
SIGNATURE "Anthony Lomax - ALomax Scientific   NLLoc:v6.00.0 18Mar2011 16h17m13"
COMMENT "1995 Vintimiglia Sequence (NonLinLoc Sample Location)"
GRID  101 101 21  -50 -50 0  1 1 1 PROB_DENSITY
SEARCH OCTREE nInitial 400 nEvaluated 10024 smallestNodeSide 0.156250/0.156250/0.082031 oct_tree_integral 9.348341e+00 scatter_volume 9.272872e+00
HYPOCENTER  x 3.51562 y 3.20312 z 7.58789  OT 16.4941  ix -1 iy -1 iz -1
GEOGRAPHIC  OT 1995 04 22  15 47   16.4941  Lat 43.7788 Long 7.54367 Depth 7.58789
QUALITY  Pmax 8.19221e+31 MFmin 21.6074 MFmax 21.9266 RMS 0.0629132 Nphs 13 Gap 230.323 Dist 12.2026 Mamp  -9.9 0 Mdur  -9.9 0
VPVSRATIO  VpVsRatio 1.78102  Npair 3  Diff 2.35
STATISTICS  ExpectX 3.61888 Y 3.18855 Z 7.00983  CovXX 0.248874 XY 0.366879 XZ 0.74101 YY 1.86867 YZ 2.35208 ZZ 6.33567 EllAz1  95.9015 Dip1  -4.57847 Len1  0.730802 Az2  3.89214 Dip2  -23.6465 Len2  1.74375 Len3  5.124951e+00
STAT_GEOG  ExpectLat 43.7787 Long 7.54496 Depth 7.00983
TRANSFORM  LAMBERT RefEllipsoid Clarke-1880  LatOrig 43.750000  LongOrig 7.500000  FirstStdParal 43.199300  SecondStdParal 44.996100  RotCW 0.000000
QML_OriginQuality  assocPhCt 0  usedPhCt 13  assocStaCt 0  usedStaCt 0  depthPhCt 0  stdErr 0.0629132  azGap 230.323  secAzGap 0  gtLevel   minDist 0 maxDist 0 medDist 0
QML_OriginUncertainty  horUnc -1  minHorUnc 0  maxHorUnc 0  azMaxHorUnc 90
FOCALMECH  Hyp  43.7788 7.54367 7.58789 Mech  0 0 0 mf  0 nObs 0
PHASE ID Ins Cmp On Pha  FM Date     HrMn   Sec     Err  ErrMag    Coda      Amp       Per       PriorWt  >   TTpred    Res       Weight    StaLoc(X  Y         Z)        SDist    SAzim  RAz  RDip RQual    Tcorr       TTerr
RONE         ?    ?    ? P      ? 19950422 1547   19.2900 GAU  1.00e-01 -1.00e+00 -1.00e+00 -1.00e+00    1.0000 >    2.7218    0.0741    1.1383    7.8887   14.5952   -0.3000   12.2026  21.00  21.0 116.8  9     0.0000   -1.0000
RONE         ?    ?    ? S      ? 19950422 1547   21.0200 GAU  1.00e-01 -1.00e+00 -1.00e+00 -1.00e+00    1.0000 >    4.5726   -0.0467    1.2370    7.8887   14.5952   -0.3000   12.2026  21.00  21.0 116.8  9     0.0000   -1.0000
SBF          ?    ?    P G      ? 19950422 1547   19.8900 GAU  1.00e-01 -1.00e+00 -1.00e+00 -1.00e+00    1.0000 >    2.9280    0.4680    0.0292   -5.2384   12.6113   -0.8470   12.8509 317.06 317.1 116.4  9     0.0000   -1.0000
NEGI         ?    ?    ? S      ? 19950422 1547   21.9400 GAU  1.00e-01 -1.00e+00 -1.00e+00 -1.00e+00    1.0000 >    5.3962    0.0097    1.2646   16.3893   10.8705   -0.6400   14.9840  59.22  59.2 112.9  9     0.0400   -1.0000
NEGI         ?    ?    ? P      ? 19950422 1547   19.8000 GAU  1.00e-01 -1.00e+00 -1.00e+00 -1.00e+00    1.0000 >    3.2120    0.0539    1.1982   16.3893   10.8705   -0.6400   14.9840  59.22  59.2 112.9  9     0.0400   -1.0000
AURF         ?    ?    P G      ? 19950422 1547   20.6300 GAU  1.00e-01 -1.00e+00 -1.00e+00 -1.00e+00    1.0000 >    4.2621   -0.1261    0.9751  -13.8607   15.2716   -1.0400   21.1562 304.78 304.8 107.2  9     0.0000   -1.0000
CEPP         ?    ?    ? P      ? 19950422 1547   20.9600 GAU  1.00e-01 -1.00e+00 -1.00e+00 -1.00e+00    1.0000 >    4.4601    0.0059    1.2740   19.7971   18.5085   -1.0800   22.3459  46.77  46.8 106.4  9     0.0000   -1.0000
CEPP         ?    ?    ? S      ? 19950422 1547   23.9700 GAU  1.00e-01 -1.00e+00 -1.00e+00 -1.00e+00    1.0000 >    7.4929   -0.0170    1.2216   19.7971   18.5085   -1.0800   22.3459  46.77  46.8 106.4  9     0.0000   -1.0000
AUTN         ?    ?    P G      ? 19950422 1547   21.7300 GAU  1.00e-01 -1.00e+00 -1.00e+00 -1.00e+00    1.0000 >    5.2082    0.0277    1.2485   -5.8149   27.2765   -2.0690   25.8184 338.81 338.8 104.9  9     0.0000   -1.0000
IMI          ?    ?    ? P      ? 19950422 1547   22.3300 GAU  1.00e-01 -1.00e+00 -1.00e+00 -1.00e+00    1.0000 >    5.9276   -0.0917    1.1031   31.5793   17.9062   -0.8400   31.6820  62.35  62.3 102.0  9     0.0000   -1.0000
IMI          ?    ?    ? S      ? 19950422 1547   26.4100 GAU  1.00e-01 -1.00e+00 -1.00e+00 -1.00e+00    1.0000 >    9.9584   -0.0425    1.1373   31.5793   17.9062   -0.8400   31.6820  62.35  62.3 102.0  9     0.0000   -1.0000
MVIF         ?    ?    P G      ? 19950422 1547   21.9500 GAU  1.00e-01 -1.00e+00 -1.00e+00 -1.00e+00    1.0000 >    6.4388   -0.9829    0.0000  -27.9180   16.3343   -1.4800   34.0661 292.67 292.7 101.4  9     0.0000   -1.0000
TOUF         ?    ?    P G      ? 19950422 1547   23.2500 GAU  1.00e-01 -1.00e+00 -1.00e+00 -1.00e+00    1.0000 >    6.7028    0.0532    1.1731  -20.1791   29.3046   -1.8500   35.2523 317.77 317.8 101.2  9     0.0000   -1.0000
0666         ?    ?    e p      u 19950422 1547   18.7700 GAU  1.00e-01 -1.00e+00 -1.00e+00 -1.00e+00    1.0000 >    0.0000    0.0000    0.0000 -100000000000000000000.0000 -100000000000000000000.0000 -100000000000000000000.0000    0.0000   0.00   0.0   0.0  0     0.0000   -1.0000
PZZ          ?    ?    ? S      ? 19950422 1547   41.6400 GAU  1.00e+00 -1.00e+00 -1.00e+00 -1.00e+00    1.0000 >    0.0000    0.0000    0.0000 -100000000000000000000.0000 -100000000000000000000.0000 -100000000000000000000.0000    0.0000   0.00   0.0   0.0  0     0.0000   -1.0000
0665         ?    ?    e p      u 19950422 1547   18.8200 GAU  1.00e-01 -1.00e+00 -1.00e+00 -1.00e+00    1.0000 >    0.0000    0.0000    0.0000 -100000000000000000000.0000 -100000000000000000000.0000 -100000000000000000000.0000    0.0000   0.00   0.0   0.0  0     0.0000   -1.0000
.obs         ?    ?    i p      u 19950422 1547   20.2100 GAU  1.00e-01 -1.00e+00 -1.00e+00 -1.00e+00    1.0000 >    0.0000    0.0000    0.0000 -100000000000000000000.0000 -100000000000000000000.0000 -100000000000000000000.0000    0.0000   0.00   0.0   0.0  0     0.0400   -1.0000
ENR          ?    ?    ? P      ? 19950422 1547   25.4700 GAU  1.00e-01 -1.00e+00 -1.00e+00 -1.00e+00    1.0000 >    0.0000    0.0000    0.0000 -100000000000000000000.0000 -100000000000000000000.0000 -100000000000000000000.0000    0.0000   0.00   0.0   0.0  0     0.0400   -1.0000
STV          ?    ?    ? P      ? 19950422 1547   26.1300 GAU  1.00e-01 -1.00e+00 -1.00e+00 -1.00e+00    1.0000 >    0.0000    0.0000    0.0000 -100000000000000000000.0000 -100000000000000000000.0000 -100000000000000000000.0000    0.0000   0.00   0.0   0.0  0     0.0000   -1.0000
FIN          ?    ?    ? P      ? 19950422 1547   29.0300 GAU  1.00e+00 -1.00e+00 -1.00e+00 -1.00e+00    1.0000 >    0.0000    0.0000    0.0000 -100000000000000000000.0000 -100000000000000000000.0000 -100000000000000000000.0000    0.0000   0.00   0.0   0.0  0     0.0000   -1.0000
FRF          ?    ?    ? G      ? 19950422 1547   30.4000 GAU  1.00e-01 -1.00e+00 -1.00e+00 -1.00e+00    1.0000 >    0.0000    0.0000    0.0000 -100000000000000000000.0000 -100000000000000000000.0000 -100000000000000000000.0000    0.0000   0.00   0.0   0.0  0     0.0000   -1.0000
PZZ          ?    ?    ? P      ? 19950422 1547   31.3900 GAU  1.00e+00 -1.00e+00 -1.00e+00 -1.00e+00    1.0000 >    0.0000    0.0000    0.0000 -100000000000000000000.0000 -100000000000000000000.0000 -100000000000000000000.0000    0.0000   0.00   0.0   0.0  0     0.0000   -1.0000
ENR          ?    ?    ? S      ? 19950422 1547   31.4900 GAU  1.00e-01 -1.00e+00 -1.00e+00 -1.00e+00    1.0000 >    0.0000    0.0000    0.0000 -100000000000000000000.0000 -100000000000000000000.0000 -100000000000000000000.0000    0.0000   0.00   0.0   0.0  0     0.0000   -1.0000
STV          ?    ?    ? S      ? 19950422 1547   32.4500 GAU  1.00e-01 -1.00e+00 -1.00e+00 -1.00e+00    1.0000 >    0.0000    0.0000    0.0000 -100000000000000000000.0000 -100000000000000000000.0000 -100000000000000000000.0000    0.0000   0.00   0.0   0.0  0     0.0400   -1.0000
LMR          ?    ?    ? G      ? 19950422 1547   33.8000 GAU  1.00e-01 -1.00e+00 -1.00e+00 -1.00e+00    1.0000 >    0.0000    0.0000    0.0000 -100000000000000000000.0000 -100000000000000000000.0000 -100000000000000000000.0000    0.0000   0.00   0.0   0.0  0     0.0000   -1.0000
LRG          ?    ?    ? G      ? 19950422 1547   34.4000 GAU  1.00e-01 -1.00e+00 -1.00e+00 -1.00e+00    1.0000 >    0.0000    0.0000    0.0000 -100000000000000000000.0000 -100000000000000000000.0000 -100000000000000000000.0000    0.0000   0.00   0.0   0.0  0     0.0000   -1.0000
FIN          ?    ?    ? S      ? 19950422 1547   37.3200 GAU  1.00e+00 -1.00e+00 -1.00e+00 -1.00e+00    1.0000 >    0.0000    0.0000    0.0000 -100000000000000000000.0000 -100000000000000000000.0000 -100000000000000000000.0000    0.0000   0.00   0.0   0.0  0     0.0000   -1.0000
END_PHASE
SCATTER Nsamples 5000
   4.9434    4.0299    8.8570  7.61e+01
   4.7411    4.2393    8.6377  7.61e+01
   4.7813    3.8224    8.7983  7.61e+01
   4.7078    3.7950    8.6230  7.61e+01
   3.6772    2.3937    5.5104  7.81e+01
   3.6032    2.3017    5.5632  7.81e+01
   3.6538    2.2708    5.5014  7.81e+01
   3.5159    2.4901    5.4845  7.81e+01
   3.5301    4.6668    8.9373  7.81e+01
   3.5555    4.5457    9.0050  7.81e+01
   3.7437    4.4239    8.9039  7.81e+01
   3.7044    4.5662    8.9569  7.81e+01
   3.1327    1.8234    4.3044  7.81e+01
   3.3665    1.6520    4.3284  7.81e+01
   3.2690    1.5945    4.4147  7.81e+01
   3.4278    1.6727    4.2937  7.81e+01
   3.1276    1.7099    5.3218  7.81e+01
   3.3557    1.7478    5.4057  7.81e+01
   3.2412    1.6680    5.2503  7.81e+01
   3.2875    1.8617    5.3819  7.81e+01
   3.6150    2.6761    5.6804  7.81e+01
   3.6296    2.7822    5.6917  7.81e+01
   3.4474    2.6098    5.5937  7.81e+01
   3.4978    2.7845    5.7175  7.81e+01
   3.6592    2.1453    5.6053  7.81e+01
   3.5298    2.0398    5.6705  7.81e+01
   3.5437    2.0105    5.7287  7.81e+01
   3.8543    2.5143   10.2846  7.60e+01
   3.8181    2.6345   10.3513  7.60e+01
   3.9714    2.9507   10.2072  7.60e+01
   4.1809    2.9344   10.3963  7.60e+01
   3.2332    3.7674    8.3752  7.81e+01
   3.3221    3.8955    8.5276  7.81e+01
   3.1934    3.8284    8.3995  7.81e+01
   3.3409    4.0372    8.3701  7.81e+01
   3.4935    2.4835    7.8997  7.81e+01
   3.5640    2.1977    7.9613  7.81e+01
   3.5004    2.2201    7.9021  7.81e+01
   3.5926    2.3086    7.9430  7.81e+01
   4.0402    3.3287   12.3537  7.40e+01
   3.8830    3.0590   11.9829  7.40e+01
   4.9346    3.1243   11.9625  7.40e+01
   4.7580    3.5368   12.0159  7.40e+01
   3.1371    3.2999    8.3913  7.81e+01
   3.2000    3.1293    8.4429  7.81e+01
   3.3312    3.2307    8.5058  7.81e+01
   3.6251    4.4983    8.6392  7.81e+01
   3.5294    4.4385    8.5347  7.81e+01
   3.5751    4.4478    8.6804  7.81e+01
   3.3816    2.0916    3.8967  7.81e+01
   3.4130    1.9054    3.8936  7.81e+01
   3.3715    2.0257    3.8635  7.81e+01
   3.4208    2.0356    3.8479  7.81e+01
   3.0616    1.7331    5.4146  7.60e+01
   2.5128    1.2523    5.2966  7.60e+01
   2.8948    1.5283    5.3063  7.60e+01
   3.6916    0.3419    2.3003  7.60e+01
   3.5543    0.3467    2.6112  7.60e+01
   3.1883    0.0604    2.5215  7.60e+01
   3.8869    3.2418    9.0237  7.81e+01
   3.8418    3.3010    9.0311  7.81e+01
   3.7987    3.4099    9.1684  7.81e+01
   3.9829    3.3985    9.0929  7.81e+01
   4.6133    7.4800   10.2324  7.60e+01
   4.5936    7.4509   10.3035  7.60e+01
   4.4597    7.4885   10.4888  7.60e+01
   3.5202    2.1110    7.1615  7.81e+01
   3.5913    1.9010    7.1309  7.81e+01
   3.6464    1.9240    7.1929  7.81e+01
   3.3106    1.6863    4.0302  7.81e+01
   3.2943    1.6927    4.0919  7.81e+01
   3.1304    1.7536    4.0655  7.81e+01
   3.2295    3.8717    7.3530  7.81e+01
   3.4076    4.0208    7.3632  7.81e+01
   3.3183    3.9693    7.2773  7.81e+01
   3.2142    3.5696    6.4065  7.81e+01
   3.1544    3.6549    6.4255  7.81e+01
   3.3120    3.7134    6.5216  7.81e+01
   3.2757    3.2279    5.8665  7.81e+01
   3.2565    3.2014    5.8583  7.81e+01
   3.3819    3.2687    5.7561  7.81e+01
   3.2112    3.4622    8.5366  7.81e+01
   3.4202    3.6846    8.6449  7.81e+01
   3.3723    3.6888    8.5690  7.81e+01
   3.4215    3.6137    8.6162  7.81e+01
   3.6669    4.1649    9.4825  7.81e+01
   3.6477    4.1262    9.3612  7.81e+01
   3.5890    4.3125    9.4145  7.81e+01
   3.1686    1.7235    5.6566  7.81e+01
   3.4062    1.8201    5.5923  7.81e+01
   3.4100    1.8249    5.6481  7.81e+01
   3.2902    1.7608    5.6220  7.81e+01
   3.8625    4.0399    7.7222  7.81e+01
   3.9508    3.8286    7.8510  7.81e+01
   4.0417    3.8316    7.8666  7.81e+01
   3.8435    4.0114    7.7623  7.81e+01
   3.3721    2.0489    6.8495  7.81e+01
   3.1751    2.0330    6.8687  7.81e+01
   3.4037    2.0652    6.8152  7.81e+01
   3.7624    4.8588    9.2887  7.81e+01
   3.9914    4.8053    9.3254  7.81e+01
   3.9014    4.9655    9.3063  7.81e+01
   4.1859    4.4905    9.6217  7.81e+01
   4.2322    4.4152    9.5264  7.81e+01
   4.0929    4.5170    9.6671  7.81e+01
   4.1403    4.4416    9.6459  7.81e+01
   3.2006    1.6768    3.9234  7.81e+01
   3.3833    1.8330    3.8989  7.81e+01
   3.1382    1.6282    3.8387  7.81e+01
   3.1557    1.6126    3.8039  7.81e+01
   3.1598    2.3156    7.4068  7.81e+01
   3.3631    2.4271    7.4321  7.81e+01
   3.3514    2.2782    7.5256  7.81e+01
   3.1400    2.4296    7.4085  7.81e+01
   3.8114    2.8905    7.4571  7.81e+01
   3.8737    2.8449    7.4600  7.81e+01
   4.0241    3.0437    7.4646  7.81e+01
   3.3903    1.9946    3.7044  7.81e+01
   3.1668    1.9954    3.6217  7.81e+01
   3.2723    2.0232    3.7232  7.81e+01
   3.1780    1.9713    3.6338  7.81e+01
   4.0924    4.4313    9.2195  7.81e+01
   4.3110    4.6334    9.2328  7.81e+01
   4.1093    4.4446    9.1927  7.81e+01
   3.4611    0.2671    3.1317  7.60e+01
   3.4968    0.5125    3.0801  7.60e+01
   3.2514    0.6177    2.9850  7.60e+01
   4.1766    4.7854    9.5631  7.80e+01
   4.1011    4.8823    9.6130  7.80e+01
   4.1131    4.9013    9.5282  7.80e+01
   3.9317    2.9821    8.6236  7.80e+01
   4.0334    2.8617    8.5955  7.80e+01
   3.8194    3.1011    8.6669  7.80e+01
   3.5361    4.0607    7.1212  7.80e+01
   3.5083    4.0314    7.1299  7.80e+01
   3.6963    3.9500    7.2151  7.80e+01
   4.0501    4.4440    9.7023  7.80e+01
   4.0010    4.5590    9.7185  7.80e+01
   3.7646    4.6836    9.7108  7.80e+01
   3.7808    4.4026    9.7028  7.80e+01
   3.2909    2.7004    7.8884  7.80e+01
   3.3526    2.6118    7.8989  7.80e+01
   3.2349    2.5931    8.0123  7.80e+01
   3.2404    1.6208    3.6561  7.80e+01
   3.1635    1.8276    3.6839  7.80e+01
   3.4087    1.8622    3.7637  7.80e+01
   4.3288    4.7422    9.7204  7.80e+01
   4.1360    4.8314    9.7651  7.80e+01
   4.3301    4.9275    9.6838  7.80e+01
   4.2521    4.7470    9.4717  7.80e+01
   4.2624    4.9789    9.3569  7.80e+01
   4.3302    4.7762    9.5130  7.80e+01
   3.4584    3.4554    6.6130  7.80e+01
   3.6402    3.5597    6.6673  7.80e+01
   3.5542    3.4860    6.6004  7.80e+01
   3.4439    1.9630    5.3150  7.80e+01
   3.7403    2.1227    5.2704  7.80e+01
   3.6154    2.0732    5.3370  7.80e+01
   4.8337    6.5344   11.3459  7.59e+01
   4.9253    6.5974   11.2978  7.59e+01
   4.3754    6.5675   11.1939  7.59e+01
   3.7000    4.4682    9.3446  7.80e+01
   3.4996    4.6830    9.3302  7.80e+01
   3.5614    4.6660    9.3210  7.80e+01
   3.4804    4.4780    9.2784  7.80e+01
   3.9234    4.6775    8.4607  7.80e+01
   3.8658    4.5839    8.4622  7.80e+01
   3.8243    4.5123    8.5215  7.80e+01
   3.3752    1.7173    3.5796  7.80e+01
   3.1327    1.6236    3.5908  7.80e+01
   3.1919    1.8155    3.4926  7.80e+01
   3.2717    2.3168    4.0605  7.80e+01
   3.4311    2.2395    4.0287  7.80e+01
   3.3073    2.2948    4.0429  7.80e+01
   4.1534    4.5643    9.8140  7.80e+01
   4.2890    4.4467    9.7463  7.80e+01
   4.1047    4.4627    9.6881  7.80e+01
   3.2811    1.9894    3.5293  7.80e+01
   3.2504    1.8809    3.5660  7.80e+01
   3.2899    2.1001    3.5730  7.80e+01
   3.3413    1.9053    3.5888  7.80e+01
   3.8211    4.7259    9.5540  7.80e+01
   3.9720    4.7877    9.5370  7.80e+01
   4.0020    4.7617    9.5445  7.80e+01
   4.0892    4.2021    9.5076  7.80e+01
   4.2550    4.1064    9.3915  7.80e+01
   4.1570    4.0807    9.4842  7.80e+01
   3.5185    3.1132    5.9052  7.80e+01
   3.6511    3.0702    5.7815  7.80e+01
   3.6810    3.0038    5.8272  7.80e+01
   3.4341    2.7812    4.4357  7.80e+01
   3.3748    2.6880    4.5501  7.80e+01
   3.3118    2.8032    4.4545  7.80e+01
   3.1993    0.4251    3.7994  7.59e+01
   3.1878    0.1224    3.7934  7.59e+01
   3.7215    0.4291    3.7202  7.59e+01
   3.7560    2.3903   10.7460  7.38e+01
   4.3034    1.8608   10.8990  7.38e+01
   4.6218    1.5235   10.7829  7.38e+01
   4.9867    1.4190   10.6548  7.38e+01
   4.1981    4.3069    9.0309  7.80e+01
   4.0859    4.3622    9.1006  7.80e+01
   4.2036    4.2385    9.1215  7.80e+01
   3.9451    3.5579    7.4251  7.80e+01
   3.8767    3.6476    7.4269  7.80e+01
   3.9087    3.7377    7.5323  7.80e+01
   2.9906    1.2028    2.5543  7.59e+01
   2.6994    1.0116    2.4849  7.59e+01
   2.9104    0.8647    2.5659  7.59e+01
   3.5815    2.6426    8.5668  7.80e+01
   3.5163    2.7230    8.6627  7.80e+01
   3.5435    2.6213    8.6860  7.80e+01
   2.8109   -1.1235    2.2334  7.38e+01
   3.3445   -0.5869    2.2810  7.38e+01
   2.8610   -1.0715    2.3149  7.38e+01
   3.4092    1.6160    5.9815  7.80e+01
   3.2671    1.7899    5.9106  7.80e+01
   3.4312    1.8208    5.9833  7.80e+01
   3.2894    1.6808    3.4181  7.80e+01
   3.2470    1.7150    3.2968  7.80e+01
   3.3288    1.6905    3.3764  7.80e+01
   4.0319    3.1798    7.3055  7.80e+01
   3.9457    3.2923    7.2599  7.80e+01
   3.8542    3.2676    7.2290  7.80e+01
   3.7708    3.3970    7.3267  7.80e+01
   3.2374    2.1604    7.0530  7.80e+01
   3.4101    1.9262    6.9508  7.80e+01
   3.4341    2.0901    6.8944  7.80e+01
   4.2809    4.7665    9.9092  7.80e+01
   4.1876    4.9866    9.8691  7.80e+01
   4.1615    4.7015    9.8790  7.80e+01
   4.1555    4.8726    9.3073  7.80e+01
   4.1192    4.8945    9.2144  7.80e+01
   4.1905    4.9660    9.1888  7.80e+01
   4.2975    4.9554    9.2656  7.80e+01
   3.2187    0.6295    7.3915  7.59e+01
   3.7002    1.0372    7.2884  7.59e+01
   3.1252    1.1509    7.4451  7.59e+01
   3.8341    4.9706    8.8940  7.80e+01
   3.8834    4.8006    8.8728  7.80e+01
   3.8949    4.9155    8.8700  7.80e+01
   3.6669    4.6614    8.2175  7.80e+01
   3.5608    4.5757    8.2772  7.80e+01
   3.6273    4.4985    8.2997  7.80e+01
   4.6636    7.4218   11.1476  7.59e+01
   4.4022    7.2743   11.1065  7.59e+01
   4.5064    7.4251   11.0349  7.59e+01
   3.2325    1.9440    3.3663  7.79e+01
   3.3945    1.9494    3.3610  7.79e+01
   3.2294    2.0039    3.4299  7.79e+01
   3.2475    3.6827    6.3031  7.79e+01
   3.3293    3.4455    6.2705  7.79e+01
   3.1514    3.5550    6.2583  7.79e+01
   3.3527    3.7461    6.3083  7.79e+01
   3.3181    1.6759    3.1621  7.79e+01
   3.3553    1.7251    3.1202  7.79e+01
   3.2237    1.7890    3.1385  7.79e+01
   3.6075    2.4745    5.1895  7.79e+01
   3.7155    2.4911    5.2067  7.79e+01
   3.6069    2.2132    5.2128  7.79e+01
   4.1076    8.1448   10.9150  7.38e+01
   4.9896    8.1592   10.6773  7.38e+01
   4.2046    8.4674   11.1182  7.38e+01
   3.2602    2.2905    3.8436  7.79e+01
   3.2300    2.4128    3.7937  7.79e+01
   3.3238    2.4070    3.8391  7.79e+01
   3.7334    2.1372    7.4918  7.79e+01
   3.4991    2.1397    7.4200  7.79e+01
   3.6657    1.9750    7.5382  7.79e+01
   3.6297    3.6395    9.3608  7.79e+01
   3.5862    3.5240    9.4826  7.79e+01
   3.4583    3.5295    9.3935  7.79e+01
   2.8934    3.5659    4.4915  7.58e+01
   2.5734    3.5956    4.4376  7.58e+01
   2.6069    3.3201    4.5810  7.58e+01
   4.3331    5.0921    9.8092  7.79e+01
   4.2880    5.2151    9.7118  7.79e+01
   4.1927    5.1773    9.6828  7.79e+01
   3.7295    3.3883    9.2567  7.79e+01
   3.6954    3.2785    9.3401  7.79e+01
   3.5910    3.3741    9.2170  7.79e+01
   3.8354    3.7687    9.6983  7.79e+01
   3.8357    3.8535    9.6901  7.79e+01
   3.9193    4.0536    9.7932  7.79e+01
