NLLOC "./loc/vinti.19950423.012763.grid0" "LOCATED" "Location completed."
SIGNATURE "Anthony Lomax - ALomax Scientific   NLLoc:v6.00.0 18Mar2011 16h17m13"
COMMENT "1995 Vintimiglia Sequence (NonLinLoc Sample Location)"
GRID  101 101 21  -50 -50 0  1 1 1 PROB_DENSITY
SEARCH OCTREE nInitial 400 nEvaluated 10008 smallestNodeSide 0.156250/0.156250/0.082031 oct_tree_integral 1.085917e+01 scatter_volume 1.085917e+01
HYPOCENTER  x 4.60938 y 6.32812 z 11.7715  OT 6.76515  ix -1 iy -1 iz -1
GEOGRAPHIC  OT 1995 04 23  01 28   6.76515  Lat 43.8069 Long 7.55729 Depth 11.7715
QUALITY  Pmax 2.32508e+16 MFmin 12.9746 MFmax 13.1795 RMS 0.0553527 Nphs 8 Gap 233.626 Dist 8.8937 Mamp  -9.9 0 Mdur  -9.9 0
VPVSRATIO  VpVsRatio 0.5  Npair 2  Diff 1.07
STATISTICS  ExpectX 4.54772 Y 6.04205 Z 11.4998  CovXX 0.515071 XY -0.150282 XZ -0.220428 YY 2.63215 YZ 1.85068 ZZ 3.73557 EllAz1  88.7084 Dip1  3.15996 Len1  1.32788 Az2  181.061 Dip2  36.6365 Len2  2.10299 Len3  4.255631e+00
STAT_GEOG  ExpectLat 43.8044 Long 7.55652 Depth 11.4998
TRANSFORM  LAMBERT RefEllipsoid Clarke-1880  LatOrig 43.750000  LongOrig 7.500000  FirstStdParal 43.199300  SecondStdParal 44.996100  RotCW 0.000000
QML_OriginQuality  assocPhCt 0  usedPhCt 8  assocStaCt 0  usedStaCt 0  depthPhCt 0  stdErr 0.0553527  azGap 233.626  secAzGap 0  gtLevel   minDist 0 maxDist 0 medDist 0
QML_OriginUncertainty  horUnc -1  minHorUnc 0  maxHorUnc 0  azMaxHorUnc 90
FOCALMECH  Hyp  43.8069 7.55729 11.7715 Mech  0 0 0 mf  0 nObs 0
PHASE ID Ins Cmp On Pha  FM Date     HrMn   Sec     Err  ErrMag    Coda      Amp       Per       PriorWt  >   TTpred    Res       Weight    StaLoc(X  Y         Z)        SDist    SAzim  RAz  RDip RQual    Tcorr       TTerr
RONE         ?    ?    ? P      ? 19950423 0128    9.4100 GAU  1.00e-01 -1.00e+00 -1.00e+00 -1.00e+00    1.0000 >    2.7155   -0.0707    1.0922    7.8887   14.5952   -0.3000    8.8937  21.64  21.6 141.2  9     0.0000   -1.0000
RONE         ?    ?    ? S      ? 19950423 0128   11.3000 GAU  1.00e-01 -1.00e+00 -1.00e+00 -1.00e+00    1.0000 >    4.5621   -0.0272    1.2002    7.8887   14.5952   -0.3000    8.8937  21.64  21.6 141.2  9     0.0000   -1.0000
SBF          ?    ?    i p      d 19950423 0128    9.9800 GAU  1.00e-01 -1.00e+00 -1.00e+00 -1.00e+00    1.0000 >    3.1427    0.0721    1.1102   -5.2384   12.6113   -0.8470   11.6815 302.54 302.5 131.0  9     0.0000   -1.0000
NEGI         ?    ?    ? S      ? 19950423 0128   12.2800 GAU  1.00e-01 -1.00e+00 -1.00e+00 -1.00e+00    1.0000 >    5.4011    0.0738    1.1008   16.3893   10.8705   -0.6400   12.6254  68.91  68.9 127.2  9     0.0400   -1.0000
NEGI         ?    ?    ? P      ? 19950423 0128    9.9700 GAU  1.00e-01 -1.00e+00 -1.00e+00 -1.00e+00    1.0000 >    3.2149   -0.0501    1.1536   16.3893   10.8705   -0.6400   12.6254  68.91  68.9 127.2  9     0.0400   -1.0000
CEPP         ?    ?    ? P      ? 19950423 0128   11.0000 GAU  1.00e-01 -1.00e+00 -1.00e+00 -1.00e+00    1.0000 >    4.2509   -0.0160    1.2141   19.7971   18.5085   -1.0800   19.4686  51.27  51.3 114.0  9     0.0000   -1.0000
CEPP         ?    ?    ? S      ? 19950423 0128   13.9600 GAU  1.00e-01 -1.00e+00 -1.00e+00 -1.00e+00    1.0000 >    7.1415    0.0534    1.1289   19.7971   18.5085   -1.0800   19.4686  51.27  51.3 114.0  9     0.0000   -1.0000
AURF         ?    ?    ? p      ? 19950423 0128   12.0700 GAU  1.00e+05 -1.00e+00 -1.00e+00 -1.00e+00    1.0000 >    4.3972    0.9077    0.0000  -13.8607   15.2716   -1.0400   20.5214 295.84 295.8 112.5  9     0.0000   -1.0000
AUTN         ?    ?    ? p      ? 19950423 0128    8.4000 GAU  1.00e+05 -1.00e+00 -1.00e+00 -1.00e+00    1.0000 >    5.0313   -3.3964    0.0000   -5.8149   27.2765   -2.0690   23.3988 333.54 333.5 109.8  9     0.0000   -1.0000
TOUF         ?    ?    P G      ? 19950423 0128   14.2800 GAU  1.00e-01 -1.00e+00 -1.00e+00 -1.00e+00    1.0000 >    6.5899    0.9249    0.0000  -20.1791   29.3046   -1.8500   33.7992 312.83 312.8 100.7  9     0.0000   -1.0000
MVIF         ?    ?    ? p      ? 19950423 0128   15.0500 GAU  1.00e+05 -1.00e+00 -1.00e+00 -1.00e+00    1.0000 >    6.5543    1.7305    0.0000  -27.9180   16.3343   -1.4800   34.0316 287.10 287.1 100.5  9     0.0000   -1.0000
LRG          ?    ?    ? G      ? 19950423 0128   24.5000 GAU  1.00e-01 -1.00e+00 -1.00e+00 -1.00e+00    1.0000 >    0.0000    0.0000    0.0000 -100000000000000000000.0000 -100000000000000000000.0000 -100000000000000000000.0000    0.0000   0.00   0.0   0.0  0     0.0000   -1.0000
0665         ?    ?    e p      . 19950423 0127   66.7400 GAU  1.00e+05 -1.00e+00 -1.00e+00 -1.00e+00    1.0000 >    0.0000    0.0000    0.0000 -100000000000000000000.0000 -100000000000000000000.0000 -100000000000000000000.0000    0.0000   0.00   0.0   0.0  0     0.0000   -1.0000
0669         ?    ?    ? p      ? 19950423 0127   67.3300 GAU  1.00e+05 -1.00e+00 -1.00e+00 -1.00e+00    1.0000 >    0.0000    0.0000    0.0000 -100000000000000000000.0000 -100000000000000000000.0000 -100000000000000000000.0000    0.0000   0.00   0.0   0.0  0     0.0000   -1.0000
0666         ?    ?    i p      u 19950423 0127   68.8200 GAU  1.00e-01 -1.00e+00 -1.00e+00 -1.00e+00    1.0000 >    0.0000    0.0000    0.0000 -100000000000000000000.0000 -100000000000000000000.0000 -100000000000000000000.0000    0.0000   0.00   0.0   0.0  0     0.0000   -1.0000
.obs         ?    ?    i p      d 19950423 0127   70.3400 GAU  1.00e-01 -1.00e+00 -1.00e+00 -1.00e+00    1.0000 >    0.0000    0.0000    0.0000 -100000000000000000000.0000 -100000000000000000000.0000 -100000000000000000000.0000    0.0000   0.00   0.0   0.0  0     0.0000   -1.0000
0667         ?    ?    e p      . 19950423 0127   72.5600 GAU  1.00e+05 -1.00e+00 -1.00e+00 -1.00e+00    1.0000 >    0.0000    0.0000    0.0000 -100000000000000000000.0000 -100000000000000000000.0000 -100000000000000000000.0000    0.0000   0.00   0.0   0.0  0     0.0400   -1.0000
PGF          ?    ?    ? p      ? 19950423 0127   78.1000 GAU  1.00e+05 -1.00e+00 -1.00e+00 -1.00e+00    1.0000 >    0.0000    0.0000    0.0000 -100000000000000000000.0000 -100000000000000000000.0000 -100000000000000000000.0000    0.0000   0.00   0.0   0.0  0     0.0000   -1.0000
FRF          ?    ?    ? G      ? 19950423 0128   20.4000 GAU  1.00e-01 -1.00e+00 -1.00e+00 -1.00e+00    1.0000 >    0.0000    0.0000    0.0000 -100000000000000000000.0000 -100000000000000000000.0000 -100000000000000000000.0000    0.0000   0.00   0.0   0.0  0     0.0000   -1.0000
LMR          ?    ?    ? G      ? 19950423 0128   23.5000 GAU  1.00e-01 -1.00e+00 -1.00e+00 -1.00e+00    1.0000 >    0.0000    0.0000    0.0000 -100000000000000000000.0000 -100000000000000000000.0000 -100000000000000000000.0000    0.0000   0.00   0.0   0.0  0     0.0400   -1.0000
0522         ?    ?    i p      d 19950423 0127   63.7200 GAU  1.00e+05 -1.00e+00 -1.00e+00 -1.00e+00    1.0000 >    0.0000    0.0000    0.0000 -100000000000000000000.0000 -100000000000000000000.0000 -100000000000000000000.0000    0.0000   0.00   0.0   0.0  0     0.0000   -1.0000
END_PHASE
SCATTER Nsamples 4940
   5.1947    5.7790   11.1608  4.20e+01
   5.0784    5.6579   11.2541  4.20e+01
   5.2720    5.6650   11.1706  4.20e+01
   5.2498    5.3282   11.4081  4.20e+01
   5.0624    5.6068   11.4480  4.20e+01
   5.3033    5.5599   11.4540  4.20e+01
   5.3117    5.3355   11.3644  4.20e+01
   4.8560    9.1716   14.0721  3.99e+01
   4.4221    9.1650   13.8184  3.99e+01
   4.8696    9.1742   14.1021  3.99e+01
   4.5030    5.0474   11.8223  4.20e+01
   4.5799    5.2800   11.8652  4.20e+01
   4.5230    5.2851   11.8933  4.20e+01
   4.6270    5.1310   11.8782  4.20e+01
   4.2542    4.9902   12.7403  3.99e+01
   3.7666    4.9012   12.7021  3.99e+01
   3.7777    4.9214   12.5494  3.99e+01
   3.8926    8.7225   11.4500  3.99e+01
   3.9971    8.5029   11.3304  3.99e+01
   4.3132    8.4906   11.2538  3.99e+01
   3.9566    8.6847   11.2337  3.99e+01
   5.1426    5.3836   11.1498  4.19e+01
   5.2512    5.4161   11.1354  4.19e+01
   5.1170    5.4284   11.0420  4.19e+01
   4.6446    7.4446   11.3841  4.19e+01
   4.4855    7.4379   11.4365  4.19e+01
   4.5839    7.1882   11.4019  4.19e+01
   4.6600    7.4215   11.4110  4.19e+01
   4.8026    3.3180    9.1694  3.99e+01
   4.5958    3.4231    9.1760  3.99e+01
   4.5944    3.2806    8.9787  3.99e+01
   4.3940    6.5686   13.1250  4.19e+01
   4.5540    6.6232   12.9820  4.19e+01
   4.4793    6.6496   13.0375  4.19e+01
   4.4995    6.5897   13.0919  4.19e+01
   4.7853    7.7103   12.6415  4.19e+01
   4.8829    7.7947   12.6993  4.19e+01
   4.7098    7.5061   12.7687  4.19e+01
   4.9510    7.6102   12.6427  4.19e+01
   5.1272    6.0429   11.3432  4.19e+01
   5.2974    6.0682   11.3787  4.19e+01
   5.0257    6.0114   11.4657  4.19e+01
   4.5403    3.5774   10.4788  3.99e+01
   4.8746    3.3072   10.4890  3.99e+01
   4.9880    3.7298   10.4785  3.99e+01
   4.1580    7.7296   12.4098  4.19e+01
   4.3426    7.6577   12.3066  4.19e+01
   4.2279    7.8052   12.3251  4.19e+01
   4.4242    5.4607   10.4847  4.19e+01
   4.6026    5.3733   10.4905  4.19e+01
   4.4221    5.4627   10.3720  4.19e+01
   5.4726    5.8787   13.9371  3.98e+01
   5.0056    5.9421   14.0268  3.98e+01
   5.1710    6.1353   13.9709  3.98e+01
   4.0673    6.3967   12.7662  4.19e+01
   4.1768    6.3603   12.6717  4.19e+01
   4.3539    6.3986   12.6565  4.19e+01
   4.8330    5.1078   14.0531  3.98e+01
   4.5705    5.5377   13.7838  3.98e+01
   4.4567    5.3167   13.8185  3.98e+01
   4.1074    3.7602    9.8208  3.98e+01
   3.9571    4.1942    9.7517  3.98e+01
   4.1097    4.2118    9.8106  3.98e+01
   4.0941    4.0986    9.6143  3.98e+01
   4.1976    5.6092   11.8818  4.19e+01
   4.2831    5.5460   11.9171  4.19e+01
   4.3312    5.4498   11.8412  4.19e+01
   5.1713    5.7309   11.9189  4.19e+01
   5.1026    5.8075   11.9475  4.19e+01
   5.2995    5.8909   11.8399  4.19e+01
   4.7765    7.6410   12.0821  4.19e+01
   4.8790    7.5479   11.9864  4.19e+01
   4.9600    7.5090   12.1106  4.19e+01
   5.2397    6.0010   12.1215  4.19e+01
   5.2401    6.0993   12.1292  4.19e+01
   5.0029    6.1499   12.1166  4.19e+01
   4.9966    5.0492   12.0211  4.19e+01
   4.7716    5.1695   11.9776  4.19e+01
   4.7547    5.0741   12.1276  4.19e+01
   4.3004    6.0099   12.5336  4.19e+01
   4.1458    6.1224   12.5516  4.19e+01
   4.0815    6.0972   12.5604  4.19e+01
   4.4590    7.9624   12.7452  4.19e+01
   4.5642    8.0191   12.7791  4.19e+01
   4.6269    7.8330   12.6486  4.19e+01
   4.9497    5.8325   10.3439  4.19e+01
   4.9642    5.9333   10.4620  4.19e+01
   4.9635    5.7969   10.3508  4.19e+01
   2.5525    2.7384   10.6219  3.77e+01
   2.7893    2.8923   10.5334  3.77e+01
   3.1867    2.6025   10.5025  3.77e+01
   4.2347    3.9670   11.5100  3.98e+01
   4.2679    4.1293   11.7680  3.98e+01
   3.8396    4.1723   11.6218  3.98e+01
   4.3210    4.6129    9.3403  3.98e+01
   4.1642    4.9209    9.4108  3.98e+01
   4.2435    4.3926    9.3495  3.98e+01
   5.1918    6.4954   11.8266  4.19e+01
   5.0377    6.3502   11.8286  4.19e+01
   5.1688    6.2500   11.9578  4.19e+01
   5.2903    6.2511   11.8875  4.19e+01
   3.0394    6.1902   12.6059  3.98e+01
   2.5849    6.0949   12.5955  3.98e+01
   2.6524    5.6580   12.6378  3.98e+01
   4.6403    4.4276    8.4097  3.98e+01
   4.7684    4.5435    8.2316  3.98e+01
   4.7177    4.8522    8.2121  3.98e+01
   4.2164    6.8123   11.2610  4.19e+01
   4.1025    6.6115   11.2065  4.19e+01
   4.2136    6.6723   11.1968  4.19e+01
   4.5580    4.8179   11.0689  4.19e+01
   4.5010    4.8885   11.1228  4.19e+01
   4.6064    4.8440   11.0543  4.19e+01
   4.9279    5.9445   10.6074  4.19e+01
   4.7868    6.1237   10.5544  4.19e+01
   4.7414    6.1954   10.5928  4.19e+01
   4.9056    6.1116   12.8436  4.19e+01
   4.9810    6.1393   12.8644  4.19e+01
   4.8042    6.2020   12.8356  4.19e+01
   3.3366    7.7699   13.3186  3.98e+01
   3.6481    7.7024   13.2239  3.98e+01
   3.4706    7.8248   13.3222  3.98e+01
   4.1705    6.3927   11.1279  4.19e+01
   4.2924    6.3810   11.1087  4.19e+01
   4.2464    6.5511   11.1389  4.19e+01
   4.7592    6.9325   13.0150  4.19e+01
   4.7128    6.9209   12.9687  4.19e+01
   4.7341    7.1668   13.0962  4.19e+01
   5.3258    3.1549    7.9978  3.98e+01
   5.5584    3.2185    8.0464  3.98e+01
   5.1158    3.4754    7.9013  3.98e+01
   5.0019    5.3116   10.8803  4.19e+01
   5.2053    5.2535   10.8871  4.19e+01
   5.2380    5.1840   10.8960  4.19e+01
   5.1932    5.2449   11.2603  4.19e+01
   5.1999    5.1115   11.3090  4.19e+01
   5.2828    5.1537   11.2144  4.19e+01
   4.6362   10.3792   14.1993  3.77e+01
   4.8071   10.8038   14.2200  3.77e+01
   4.7820   10.1803   13.8202  3.77e+01
   4.9749    5.3425   10.3338  4.19e+01
   4.7438    5.4392   10.2405  4.19e+01
   4.8015    5.3840   10.2358  4.19e+01
   5.1150    5.3992   11.7052  4.19e+01
   5.1757    5.4706   11.7882  4.19e+01
   5.0246    5.3668   11.7986  4.19e+01
   4.8904    5.9217   12.7932  4.19e+01
   4.7608    5.8030   12.6462  4.19e+01
   4.7953    5.6534   12.7337  4.19e+01
   4.6604    4.0529   12.4933  3.98e+01
   4.8537    3.7579   12.6849  3.98e+01
   4.8075    4.3111   12.6170  3.98e+01
   4.9479    7.4412   11.6275  4.19e+01
   4.9735    7.4492   11.5099  4.19e+01
   4.9433    7.2636   11.5350  4.19e+01
   4.9362    4.8677   11.6029  4.19e+01
   4.9241    4.9056   11.4871  4.19e+01
   4.8398    4.6980   11.5672  4.19e+01
   4.1417    7.6382   12.1101  4.19e+01
   4.2338    7.6099   12.0976  4.19e+01
   4.1316    7.6994   12.0486  4.19e+01
   4.6164    5.5715   12.4610  4.19e+01
   4.4720    5.5047   12.4418  4.19e+01
   4.4914    5.6212   12.3524  4.19e+01
   4.3662    6.9001   11.4411  4.19e+01
   4.0792    6.9737   11.4004  4.19e+01
   4.3063    7.0351   11.4567  4.19e+01
   4.6718    4.9164   10.7781  4.19e+01
   4.3996    4.8953   10.7731  4.19e+01
   4.6561    4.7332   10.6657  4.19e+01
   4.4507    7.8509   12.1157  4.19e+01
   4.5817    8.1016   12.0451  4.19e+01
   4.5771    8.0599   12.1045  4.19e+01
   5.2616    6.5418   11.4994  4.18e+01
   5.2307    6.3066   11.6029  4.18e+01
   5.2468    6.3667   11.5242  4.18e+01
   5.0873    6.3558   12.3027  4.18e+01
   5.1840    6.2525   12.1448  4.18e+01
   5.2532    6.3421   12.2679  4.18e+01
   4.1418    5.5343   10.9838  4.18e+01
   4.1267    5.6210   10.8728  4.18e+01
   4.2153    5.4472   10.8548  4.18e+01
   4.7556    4.8286   10.2109  4.18e+01
   4.7812    4.7138   10.2453  4.18e+01
   4.9243    4.8292   10.2878  4.18e+01
   4.2123    7.2790   12.8293  4.18e+01
   4.0902    7.1975   12.8477  4.18e+01
   4.3597    7.3682   12.9406  4.18e+01
   4.3163    6.7461   12.9525  4.18e+01
   4.1907    6.8210   12.9357  4.18e+01
   4.0791    6.6502   12.8523  4.18e+01
   4.2056    7.5865   12.6693  4.18e+01
   4.1125    7.8117   12.7920  4.18e+01
   4.2869    7.7872   12.7717  4.18e+01
   4.2170    6.0992   10.9747  4.18e+01
   4.1224    6.0973   10.9585  4.18e+01
   4.1594    6.0223   10.8799  4.18e+01
   4.3403    5.7201   12.3806  4.18e+01
   4.2337    5.9056   12.3441  4.18e+01
   4.1781    5.8400   12.4566  4.18e+01
   4.9787    6.3826   10.7159  4.18e+01
   4.8243    6.4120   10.6926  4.18e+01
   4.7990    6.5427   10.7480  4.18e+01
   4.0331    6.4388   11.9231  4.18e+01
   4.0100    6.5572   11.9186  4.18e+01
   4.0148    6.2748   11.8619  4.18e+01
   5.2271    5.5128   10.6757  4.18e+01
   5.1512    5.5560   10.7562  4.18e+01
   5.3118    5.4900   10.7305  4.18e+01
   4.9038    8.6037   14.1977  3.97e+01
   4.5267    8.6875   14.2428  3.97e+01
   4.9398    8.7115   14.3305  3.97e+01
   4.5362    4.7426   11.3894  4.18e+01
   4.5836    4.8598   11.4242  4.18e+01
   4.4572    4.9589   11.3535  4.18e+01
   5.4707    1.9301    3.9746  3.77e+01
   5.5772    1.5877    4.5435  3.77e+01
   5.4526    2.2639    4.4469  3.77e+01
   4.4439    9.6332   12.8137  3.97e+01
   4.3809    9.8810   13.1218  3.97e+01
   4.6558    9.5110   12.9786  3.97e+01
   5.6451    8.4692   14.7453  3.77e+01
   5.1526    8.2831   14.4632  3.77e+01
   5.4960    8.4923   14.4866  3.77e+01
   4.2193    8.7008   13.8886  3.97e+01
   4.0582    8.3833   13.8857  3.97e+01
   4.1466    8.6580   13.8226  3.97e+01
   3.9282    6.5399   12.2654  4.18e+01
   3.9816    6.3020   12.1902  4.18e+01
   3.9689    6.3964   12.1860  4.18e+01
   4.9596    6.0650   14.2666  3.97e+01
   4.6752    5.8457   14.3377  3.97e+01
   4.6375    5.7262   14.2900  3.97e+01
   3.7153    7.5966   12.1386  3.97e+01
   3.6259    7.6627   11.9906  3.97e+01
   3.1352    7.8010   11.9021  3.97e+01
   4.0378    6.0794   11.7173  4.18e+01
   3.8386    6.2396   11.6747  4.18e+01
   4.0452    5.9953   11.7154  4.18e+01
   3.2351    4.7010   12.3626  3.97e+01
   3.4623    4.7865   12.2634  3.97e+01
   3.7439    4.8527   12.1692  3.97e+01
   5.1387    5.6381   10.8595  4.18e+01
   5.2516    5.6654   10.8859  4.18e+01
   5.1582    5.8898   10.8781  4.18e+01
   3.8137    5.9385   12.0293  4.18e+01
   3.8972    6.0911   12.0473  4.18e+01
   5.0598    6.6635   10.3174  3.97e+01
   5.2409    6.5011   10.4395  3.97e+01
   5.0459    6.3395   10.1956  3.97e+01
   4.8038    6.3662   13.0153  4.18e+01
   4.6922    6.3130   13.0836  4.18e+01
   4.4144    5.4793    8.8234  3.97e+01
   4.8115    5.0639    8.8534  3.97e+01
   4.6673    5.2325    8.5390  3.97e+01
   6.1272    2.8226   14.3311  3.76e+01
   5.8973    3.2396   13.9938  3.76e+01
   6.2111    3.4742   13.8008  3.76e+01
   5.0411    6.8568   12.1371  4.18e+01
   5.0198    6.6308   12.0620  4.18e+01
   5.0024    6.8272   12.1403  4.18e+01
   5.3834    7.0409   14.0679  3.97e+01
   5.4033    7.2549   14.0371  3.97e+01
   5.4667    7.2537   13.8216  3.97e+01
   4.2206    5.1635   11.3399  4.18e+01
   4.1704    5.3057   11.4549  4.18e+01
   4.2269    5.1385   11.4651  4.18e+01
   4.5299    7.6192   11.6173  4.18e+01
   4.6666    7.7889   11.5663  4.18e+01
   4.4229    7.5071   11.5684  4.18e+01
   4.7077    5.4548   12.4825  4.18e+01
   4.7754    5.5261   12.5805  4.18e+01
   3.9992    6.6576   12.0236  4.18e+01
   3.8762    6.6694   12.0977  4.18e+01
   4.0467    6.6024   12.0599  4.18e+01
   5.1098    5.2829   10.5785  4.18e+01
   5.2427    5.2754   10.6116  4.18e+01
   5.0162    5.1541   10.5089  4.18e+01
   4.2342    7.3439   11.5913  4.18e+01
   4.3712    7.3670   11.5665  4.18e+01
   4.1688    7.4107   11.5188  4.18e+01
   5.4280    1.8811    1.8284  3.76e+01
   5.2905    1.9821    1.9286  3.76e+01
   5.3524    1.5580    1.5627  3.76e+01
   4.8367    5.0349   10.1337  4.18e+01
   4.7688    5.0114   10.1147  4.18e+01
   4.9394    5.0857   10.0399  4.18e+01
   5.2085    2.4906    8.4812  3.76e+01
   6.2125    2.0379    8.0311  3.76e+01
   5.8927    1.3547    7.9426  3.76e+01
   5.2885    5.2054   11.5215  4.18e+01
   5.1004    5.1805   11.6361  4.18e+01
   5.0014    5.3021   11.5090  4.18e+01
   4.5113    7.1704   13.2665  4.18e+01
   4.5152    7.1573   13.2146  4.18e+01
   4.3422    5.2042   11.0023  4.18e+01
   4.2075    5.1056   11.0417  4.18e+01
   2.8320    5.3944   12.2310  3.97e+01
   2.8068    5.1308   12.4285  3.97e+01
   2.6029    5.1437   12.1615  3.97e+01
   5.0587    5.9602   12.4248  4.18e+01
   5.2344    6.0519   12.3604  4.18e+01
   5.2284    6.0625   12.3937  4.18e+01
   2.9551    6.5282   13.0252  3.97e+01
   2.8379    6.8176   12.9720  3.97e+01
   2.5909    6.8703   13.0697  3.97e+01
   5.0002    5.9169   12.1970  4.18e+01
   5.2104    5.9315   12.2955  4.18e+01
   5.2641    5.7999   12.2708  4.18e+01
   3.1401    4.2432   10.7977  3.97e+01
   3.3574    3.8161   10.5603  3.97e+01
   3.2886    3.8111   10.6265  3.97e+01
   3.1014    6.0711   11.2094  3.97e+01
   2.8306    6.1892   11.4069  3.97e+01
   5.9163    1.4732    3.4871  3.76e+01
   5.7926    2.1393    3.4453  3.76e+01
   6.0710    2.2932    3.2861  3.76e+01
   4.6301    5.5991   10.1840  4.17e+01
   4.5014    5.4738   10.2962  4.17e+01
   3.8929    8.8348   13.5261  3.97e+01
   3.8757    9.3290   13.7693  3.97e+01
   3.8822    6.8046   12.4590  4.17e+01
   3.7982    6.5875   12.4285  4.17e+01
