NLLOC "./loc/vinti.19950422.154718.grid0" "LOCATED" "Location completed."
SIGNATURE "Anthony Lomax - ALomax Scientific   NLLoc:v6.00.0 18Mar2011 16h17m13"
COMMENT "1995 Vintimiglia Sequence (NonLinLoc Sample Location)"
GRID  101 101 21  -50 -50 0  1 1 1 PROB_DENSITY
SEARCH OCTREE nInitial 400 nEvaluated 10024 smallestNodeSide 0.156250/0.156250/0.082031 oct_tree_integral 9.348341e+00 scatter_volume 9.272872e+00
HYPOCENTER  x 3.51562 y 3.20312 z 7.58789  OT 16.4941  ix -1 iy -1 iz -1
GEOGRAPHIC  OT 1995 04 22  15 47   16.4941  Lat 43.7788 Long 7.54367 Depth 7.58789
QUALITY  Pmax 8.19221e+31 MFmin 21.6074 MFmax 21.9266 RMS 0.0629132 Nphs 13 Gap 230.323 Dist 12.2026 Mamp  -9.9 0 Mdur  -9.9 0
VPVSRATIO  VpVsRatio 1.78102  Npair 3  Diff 2.35
STATISTICS  ExpectX 3.61888 Y 3.18855 Z 7.00983  CovXX 0.248874 XY 0.366879 XZ 0.74101 YY 1.86867 YZ 2.35208 ZZ 6.33567 EllAz1  95.9015 Dip1  -4.57847 Len1  0.730802 Az2  3.89214 Dip2  -23.6465 Len2  1.74375 Len3  5.124951e+00
STAT_GEOG  ExpectLat 43.7787 Long 7.54496 Depth 7.00983
TRANSFORM  LAMBERT RefEllipsoid Clarke-1880  LatOrig 43.750000  LongOrig 7.500000  FirstStdParal 43.199300  SecondStdParal 44.996100  RotCW 0.000000
QML_OriginQuality  assocPhCt 27  usedPhCt 13  assocStaCt -1  usedStaCt 9  depthPhCt -1  stdErr 0.0629132  azGap 230.323  secAzGap 242.432  gtLevel -  minDist 12.2026 maxDist 35.2523 medDist 22.3459
QML_OriginUncertainty  horUnc -1  minHorUnc 0.62466  maxHorUnc 2.11664  azMaxHorUnc 12.1851
FOCALMECH  Hyp  43.7788 7.54367 7.58789 Mech  0 0 0 mf  0 nObs 0
PHASE ID Ins Cmp On Pha  FM Date     HrMn   Sec     Err  ErrMag    Coda      Amp       Per  >   TTpred    Res       Weight    StaLoc(X  Y         Z)        SDist    SAzim  RAz  RDip RQual    Tcorr 
RONE   ?    ?    ? P      ? 19950422 1547     19.29 GAU       0.1        -1        -1        -1 >    2.7218    0.0741    1.1383    7.8887   14.5952   -0.3000   12.2026  21.00  21.0 116.8  9     0.0000
RONE   ?    ?    ? S      ? 19950422 1547     21.02 GAU       0.1        -1        -1        -1 >    4.5726   -0.0467    1.2370    7.8887   14.5952   -0.3000   12.2026  21.00  21.0 116.8  9     0.0000
SBF    ?    ?    P G      ? 19950422 1547     19.89 GAU       0.1        -1        -1        -1 >    2.9280    0.4680    0.0292   -5.2384   12.6113   -0.8470   12.8509 317.06 317.1 116.4  9     0.0000
NEGI   ?    ?    ? S      ? 19950422 1547     21.94 GAU       0.1        -1        -1        -1 >    5.3962    0.0097    1.2646   16.3893   10.8705   -0.6400   14.9840  59.22  59.2 112.9  9     0.0400
NEGI   ?    ?    ? P      ? 19950422 1547      19.8 GAU       0.1        -1        -1        -1 >    3.2120    0.0539    1.1982   16.3893   10.8705   -0.6400   14.9840  59.22  59.2 112.9  9     0.0400
AURF   ?    ?    P G      ? 19950422 1547     20.63 GAU       0.1        -1        -1        -1 >    4.2621   -0.1261    0.9751  -13.8607   15.2716   -1.0400   21.1562 304.78 304.8 107.2  9     0.0000
CEPP   ?    ?    ? P      ? 19950422 1547     20.96 GAU       0.1        -1        -1        -1 >    4.4601    0.0059    1.2740   19.7971   18.5085   -1.0800   22.3459  46.77  46.8 106.4  9     0.0000
CEPP   ?    ?    ? S      ? 19950422 1547     23.97 GAU       0.1        -1        -1        -1 >    7.4929   -0.0170    1.2216   19.7971   18.5085   -1.0800   22.3459  46.77  46.8 106.4  9     0.0000
AUTN   ?    ?    P G      ? 19950422 1547     21.73 GAU       0.1        -1        -1        -1 >    5.2082    0.0277    1.2485   -5.8149   27.2765   -2.0690   25.8184 338.81 338.8 104.9  9     0.0000
IMI    ?    ?    ? P      ? 19950422 1547     22.33 GAU       0.1        -1        -1        -1 >    5.9276   -0.0917    1.1031   31.5793   17.9062   -0.8400   31.6820  62.35  62.3 102.0  9     0.0000
IMI    ?    ?    ? S      ? 19950422 1547     26.41 GAU       0.1        -1        -1        -1 >    9.9584   -0.0425    1.1373   31.5793   17.9062   -0.8400   31.6820  62.35  62.3 102.0  9     0.0000
MVIF   ?    ?    P G      ? 19950422 1547     21.95 GAU       0.1        -1        -1        -1 >    6.4388   -0.9829    0.0000  -27.9180   16.3343   -1.4800   34.0661 292.67 292.7 101.4  9     0.0000
TOUF   ?    ?    P G      ? 19950422 1547     23.25 GAU       0.1        -1        -1        -1 >    6.7028    0.0532    1.1731  -20.1791   29.3046   -1.8500   35.2523 317.77 317.8 101.2  9     0.0000
0666   ?    ?    e p      u 19950422 1547     18.77 GAU       0.1        -1        -1        -1 >    0.0000    0.0000    0.0000 -100000000000000000000.0000 -100000000000000000000.0000 -100000000000000000000.0000    0.0000   0.00   0.0   0.0  0     0.0000
PZZ    ?    ?    ? S      ? 19950422 1547     41.64 GAU         1        -1        -1        -1 >    0.0000    0.0000    0.0000 -100000000000000000000.0000 -100000000000000000000.0000 -100000000000000000000.0000    0.0000   0.00   0.0   0.0  0     0.0000
0665   ?    ?    e p      u 19950422 1547     18.82 GAU       0.1        -1        -1        -1 >    0.0000    0.0000    0.0000 -100000000000000000000.0000 -100000000000000000000.0000 -100000000000000000000.0000    0.0000   0.00   0.0   0.0  0     0.0000
.obs   ?    ?    i p      u 19950422 1547     20.21 GAU       0.1        -1        -1        -1 >    0.0000    0.0000    0.0000 -100000000000000000000.0000 -100000000000000000000.0000 -100000000000000000000.0000    0.0000   0.00   0.0   0.0  0     0.0400
ENR    ?    ?    ? P      ? 19950422 1547     25.47 GAU       0.1        -1        -1        -1 >    0.0000    0.0000    0.0000 -100000000000000000000.0000 -100000000000000000000.0000 -100000000000000000000.0000    0.0000   0.00   0.0   0.0  0     0.0400
STV    ?    ?    ? P      ? 19950422 1547     26.13 GAU       0.1        -1        -1        -1 >    0.0000    0.0000    0.0000 -100000000000000000000.0000 -100000000000000000000.0000 -100000000000000000000.0000    0.0000   0.00   0.0   0.0  0     0.0000
FIN    ?    ?    ? P      ? 19950422 1547     29.03 GAU         1        -1        -1        -1 >    0.0000    0.0000    0.0000 -100000000000000000000.0000 -100000000000000000000.0000 -100000000000000000000.0000    0.0000   0.00   0.0   0.0  0     0.0000
FRF    ?    ?    ? G      ? 19950422 1547      30.4 GAU       0.1        -1        -1        -1 >    0.0000    0.0000    0.0000 -100000000000000000000.0000 -100000000000000000000.0000 -100000000000000000000.0000    0.0000   0.00   0.0   0.0  0     0.0000
PZZ    ?    ?    ? P      ? 19950422 1547     31.39 GAU         1        -1        -1        -1 >    0.0000    0.0000    0.0000 -100000000000000000000.0000 -100000000000000000000.0000 -100000000000000000000.0000    0.0000   0.00   0.0   0.0  0     0.0000
ENR    ?    ?    ? S      ? 19950422 1547     31.49 GAU       0.1        -1        -1        -1 >    0.0000    0.0000    0.0000 -100000000000000000000.0000 -100000000000000000000.0000 -100000000000000000000.0000    0.0000   0.00   0.0   0.0  0     0.0000
STV    ?    ?    ? S      ? 19950422 1547     32.45 GAU       0.1        -1        -1        -1 >    0.0000    0.0000    0.0000 -100000000000000000000.0000 -100000000000000000000.0000 -100000000000000000000.0000    0.0000   0.00   0.0   0.0  0     0.0400
LMR    ?    ?    ? G      ? 19950422 1547      33.8 GAU       0.1        -1        -1        -1 >    0.0000    0.0000    0.0000 -100000000000000000000.0000 -100000000000000000000.0000 -100000000000000000000.0000    0.0000   0.00   0.0   0.0  0     0.0000
LRG    ?    ?    ? G      ? 19950422 1547      34.4 GAU       0.1        -1        -1        -1 >    0.0000    0.0000    0.0000 -100000000000000000000.0000 -100000000000000000000.0000 -100000000000000000000.0000    0.0000   0.00   0.0   0.0  0     0.0000
FIN    ?    ?    ? S      ? 19950422 1547     37.32 GAU         1        -1        -1        -1 >    0.0000    0.0000    0.0000 -100000000000000000000.0000 -100000000000000000000.0000 -100000000000000000000.0000    0.0000   0.00   0.0   0.0  0     0.0000
END_PHASE
END_NLLOC

