NLLOC "./loc/vinti.19950421.080259.grid0" "LOCATED" "Location completed."
SIGNATURE "Anthony Lomax - ALomax Scientific   NLLoc:v6.00.0 18Mar2011 16h17m12"
COMMENT "1995 Vintimiglia Sequence (NonLinLoc Sample Location)"
GRID  101 101 21  -50 -50 0  1 1 1 PROB_DENSITY
SEARCH OCTREE nInitial 400 nEvaluated 10008 smallestNodeSide 0.156250/0.156250/0.082031 oct_tree_integral 1.046112e+01 scatter_volume 1.046112e+01
HYPOCENTER  x 4.76562 y 6.01562 z 8.49023  OT 57.0903  ix -1 iy -1 iz -1
GEOGRAPHIC  OT 1995 04 21  08 02   57.0903  Lat 43.8041 Long 7.55923 Depth 8.49023
QUALITY  Pmax 2.5502e+28 MFmin 17.7259 MFmax 17.8636 RMS 0.0904332 Nphs 12 Gap 177.917 Dist 9.13028 Mamp  -9.9 0 Mdur  -9.9 0
VPVSRATIO  VpVsRatio 0.5  Npair 2  Diff 1
STATISTICS  ExpectX 4.90718 Y 5.93022 Z 8.54284  CovXX 0.424543 XY -0.210244 XZ 1.08658 YY 0.994715 YZ -0.538068 ZZ 9.86791 EllAz1  77.875 Dip1  -5.64842 Len1  0.975283 Az2  348.352 Dip2  4.80661 Len2  1.87117 Len3  5.949055e+00
STAT_GEOG  ExpectLat 43.8034 Long 7.56098 Depth 8.54284
TRANSFORM  LAMBERT RefEllipsoid Clarke-1880  LatOrig 43.750000  LongOrig 7.500000  FirstStdParal 43.199300  SecondStdParal 44.996100  RotCW 0.000000
QML_OriginQuality  assocPhCt 12  usedPhCt 12  assocStaCt -1  usedStaCt 10  depthPhCt -1  stdErr 0.0904332  azGap 177.917  secAzGap 220.191  gtLevel -  minDist 9.13028 maxDist 34.2738 medDist 20.1723
QML_OriginUncertainty  horUnc -1  minHorUnc 0.904116  maxHorUnc 1.56425  azMaxHorUnc 161.796
FOCALMECH  Hyp  43.8041 7.55923 8.49023 Mech  0 0 0 mf  0 nObs 0
PHASE ID Ins Cmp On Pha  FM Date     HrMn   Sec     Err  ErrMag    Coda      Amp       Per  >   TTpred    Res       Weight    StaLoc(X  Y         Z)        SDist    SAzim  RAz  RDip RQual    Tcorr 
RONE   ?    ?    ? P      U 19950421 0802     59.44 GAU       0.1        -1        -1        -1 >    2.3659   -0.0161    1.2811    7.8887   14.5952   -0.3000    9.1303  20.00  20.0 128.2  9     0.0000
SBF    ?    ?    ? P      ? 19950421 0803      0.26 GAU       0.1        -1        -1        -1 >    2.8730    0.2968    0.3387   -5.2384   12.6113   -0.8470   11.9826 303.40 303.4 121.2  9     0.0000
NEGI   ?    ?    ? P      U 19950421 0803      0.02 GAU       0.1        -1        -1        -1 >    2.9200   -0.0302    1.2617   16.3893   10.8705   -0.6400   12.5968  67.33  67.3 119.6  9     0.0400
REVF   ?    ?    ? P      ? 19950421 0803      0.67 GAU       0.1        -1        -1        -1 >    3.5937   -0.0140    1.2832  -10.6730   -1.1024   -0.7000   17.0005 245.25 245.2 113.1  9     0.0000
CEPP   ?    ?    ? P      U 19950421 0803      1.14 GAU       0.1        -1        -1        -1 >    4.0639   -0.0141    1.2831   19.7971   18.5085   -1.0800   19.5452  50.27  50.3 110.7  9     0.0000
AURF   ?    ?    ? P      ? 19950421 0803      1.39 GAU       0.1        -1        -1        -1 >    4.2532    0.0465    1.2573  -13.8607   15.2716   -1.0400   20.7994 296.42 296.4 109.6  9     0.0000
AUTN   ?    ?    ? P      ? 19950421 0803      2.04 GAU       0.1        -1        -1        -1 >    4.9189    0.0309    1.2798   -5.8149   27.2765   -2.0690   23.7481 333.54 333.5 108.0  9     0.0000
IMI    ?    ?    ? P      ? 19950421 0803      2.77 GAU       0.1        -1        -1        -1 >    5.5799    0.0999    1.1089   31.5793   17.9062   -0.8400   29.3319  66.09  66.1 104.3  9     0.0000
TOUF   ?    ?    ? P      ? 19950421 0803      3.55 GAU       0.1        -1        -1        -1 >    6.5503   -0.0905    1.0723  -20.1791   29.3046   -1.8500   34.1264 313.03 313.0 102.2  9     0.0000
TOUF   ?    ?    ? S      ? 19950421 0803      7.65 GAU       0.5        -1        -1        -1 >   11.0045   -0.4447    0.3332  -20.1791   29.3046   -1.8500   34.1264 313.03 313.0 102.2  9     0.0000
MVIF   ?    ?    ? P      ? 19950421 0803      3.58 GAU       0.1        -1        -1        -1 >    6.5043   -0.0145    1.2548  -27.9180   16.3343   -1.4800   34.2738 287.52 287.5 102.0  9     0.0000
MVIF   ?    ?    ? S      ? 19950421 0803      8.68 GAU       0.5        -1        -1        -1 >   10.9272    0.6625    0.2459  -27.9180   16.3343   -1.4800   34.2738 287.52 287.5 102.0  9     0.0000
END_PHASE
END_NLLOC

