NLLOC "./loc/vinti.20000915.080730.grid0" "LOCATED" "Location completed."
SIGNATURE "Anthony Lomax - ALomax Scientific   NLLoc:v6.00.0 12Dec2015 00h47m04"
COMMENT "1995 Vintimiglia Sequence (NonLinLoc Sample Location)"
GRID  801 801 41  -50 -50 0  1 1 1 PROB_DENSITY
SEARCH OCTREE nInitial 400 nEvaluated 10000 smallestNodeSide 1.250000/1.250000/0.160156 oct_tree_integral 4.853661e+02 scatter_volume 4.820406e+02
HYPOCENTER  x 286.875 y 276.875 z 25.0645  OT 28.3562  ix -1 iy -1 iz -1
GEOGRAPHIC  OT 2000 09 15  08 07   28.3562  Lat 24.3368 Long 120.826 Depth 25.0645
QUALITY  Pmax 2.57269e+12 MFmin 11.6896 MFmax 12.179 RMS 0.289838 Nphs 10 Gap 146.407 Dist 44.4079 Mamp  -9.9 0 Mdur  -9.9 0
VPVSRATIO  VpVsRatio -1  Npair 0  Diff -2e+30
STATISTICS  ExpectX 287.082 Y 278.228 Z 27.9092  CovXX 90.0327 XY -61.3132 XZ 0.0970124 YY 365.383 YZ -4.73119 ZZ 47.5319 EllAz1  232.97 Dip1  -88.0988 Len1  12.9407 Az2  258.024 Dip2  1.72243 Len2  16.4892 Len3  3.655199e+01
STAT_GEOG  ExpectLat 24.3489 Long 120.829 Depth 27.9092
TRANSFORM  LAMBERT RefEllipsoid Clarke-1880  LatOrig 21.860000  LongOrig 118.000000  FirstStdParal 20.500000  SecondStdParal 24.000000  RotCW 0.000000
QML_OriginQuality  assocPhCt 12  usedPhCt 10  assocStaCt -1  usedStaCt 10  depthPhCt -1  stdErr 0.289838  azGap 146.407  secAzGap 206.637  gtLevel -  minDist 44.4079 maxDist 219.936 medDist 115.771
QML_OriginUncertainty  horUnc -1  minHorUnc 13.3076  maxHorUnc 29.5019  azMaxHorUnc 167.997
FOCALMECH  Hyp  24.3368 120.826 25.0645 Mech  0 0 0 mf  0 nObs 0
PHASE ID Ins Cmp On Pha  FM Date     HrMn   Sec     Err  ErrMag    Coda      Amp       Per  >   TTpred    Res       Weight    StaLoc(X  Y         Z)        SDist    SAzim  RAz  RDip RQual    Tcorr 
TDCB   ?    ?    ? P      ? 20000915 0807     30.69 GAU       0.1        -1        -1        -1 >    8.2626   -5.9289    0.0000  330.5720  268.9606   -0.5000   44.4079 100.27 100.3  86.3  9     0.0000
SSLB   ?    ?    ? P      ? 20000915 0807     35.25 GAU       0.1        -1        -1        -1 >   10.4869   -3.5931    0.0000  301.0231  216.3005   -0.5000   62.2048 166.85 166.9  77.0  7     0.0000
NACB   ?    ?    ? P      ? 20000915 0807     36.48 GAU       0.1        -1        -1        -1 >   12.7243   -4.6005    0.0000  365.2851  260.4840   -0.5000   80.1050 101.81 101.8  76.6  7     0.0000
TATO   ?    ?    ? P      ? 20000915 0807     42.11 GAU       0.1        -1        -1        -1 >   14.8946   -1.1408    0.0078  352.4071  349.0241   -0.5000   97.4677  42.25  42.2  76.3  7     0.0000
YULB   ?    ?    ? P      ? 20000915 0807     45.59 GAU       0.1        -1        -1        -1 >   17.0923    0.1414    2.1468  336.9343  173.2861   -0.5000  115.0504 154.21 154.2  76.2  7     0.0000
TPUB   ?    ?    ? P      ? 20000915 0807     45.45 GAU       0.1        -1        -1        -1 >   17.2725   -0.1788    2.0954  268.9063  161.7773   -0.5000  116.4919 188.87 188.9  76.2  7     0.0000
ANPB   ?    ?    ? P      ? 20000915 0807     45.85 GAU       0.1        -1        -1        -1 >   17.3943    0.0995    2.2767  355.1052  372.4935   -0.5000  117.4660  35.51  35.5  76.2  7     0.0000
WFSB   ?    ?    ? P      ? 20000915 0807     46.63 GAU       0.1        -1        -1        -1 >   18.5035   -0.2297    1.8923  381.7284  360.3284   -0.5000  126.3394  48.66  48.7  76.1  7     0.0000
TWGB   ?    ?    ? P      ? 20000915 0807     53.36 GAU       0.5        -1        -1        -1 >   23.9848    1.0190    0.7043  316.0368  109.2016   -0.5000  170.1905 170.13 170.1  75.9  7     0.0000
MATB   ?    ?    ? P      ? 20000915 0807     59.46 GAU       0.5        -1        -1        -1 >   30.2030    0.9008    0.8767  194.9010  476.6566   -0.5000  219.9362 335.28 335.3  75.8  7     0.0000
KMNB   ?    ?    ? P      ? 20000915 0807     52.28 GAU       0.1        -1        -1        -1 >    0.0000    0.0000    0.0000   39.3895  288.3200   -0.5000    0.0000   0.00   0.0   0.0  0     0.0000
TWKB   ?    ?    ? P      ? 20000915 0807     67.31 GAU       0.1        -1        -1        -1 >    0.0000    0.0000    0.0000  290.4058   11.6195   -0.5000    0.0000   0.00   0.0   0.0  0     0.0000
END_PHASE
END_NLLOC

